{"type":"FeatureCollection","note":"Andhra Pradesh district boundaries as of the 2022 reorganisation (26 districts). Markapuram and Polavaram, created 31 December 2025, are not present in this source.","features":[{"type":"Feature","properties":{"d":"ALLURI SITHARAMA RAJU"},"geometry":{"type":"Polygon","coordinates":[[[83.0771,18.4037],[83.1037,18.4131],[83.075,18.3709],[83.0792,18.3467],[83.0915,18.3425],[83.0939,18.3531],[83.1045,18.3576],[83.1119,18.3487],[83.1331,18.3498],[83.1511,18.3411],[83.1484,18.3274],[83.1614,18.3287],[83.1679,18.3136],[83.1905,18.3299],[83.2187,18.3341],[83.2104,18.2863],[83.2252,18.2817],[83.2295,18.2885],[83.2588,18.2767],[83.2669,18.2166],[83.2324,18.2375],[83.2415,18.2026],[83.2285,18.2053],[83.219,18.2247],[83.2151,18.2013],[83.2252,18.1942],[83.2087,18.1893],[83.1893,18.1983],[83.1839,18.2234],[83.1742,18.2288],[83.1679,18.2111],[83.1562,18.2091],[83.1578,18.2003],[83.1436,18.2],[83.1528,18.1908],[83.1326,18.176],[83.1043,18.1889],[83.1181,18.1701],[83.1073,18.1585],[83.1183,18.1545],[83.102,18.1346],[83.1224,18.1154],[83.1046,18.1099],[83.1287,18.1089],[83.1271,18.0984],[83.0743,18.0857],[83.0686,18.0734],[83.051,18.0718],[83.0264,18.08],[83.0326,18.0882],[83.0283,18.094],[83.0258,18.0844],[83.0249,18.0919],[83.0024,18.0729],[83.0055,18.0546],[82.9959,18.0522],[82.9787,18.0282],[82.9809,18.0155],[82.96,18.0087],[82.9442,17.988],[82.9355,17.9944],[82.9401,18.0077],[82.9284,18.0142],[82.887,18.01],[82.8862,18.0257],[82.8596,17.999],[82.8484,17.9995],[82.8482,18.0069],[82.8182,17.9983],[82.8226,17.989],[82.849,17.9839],[82.8431,17.9717],[82.8543,17.9662],[82.8471,17.9508],[82.8348,17.9485],[82.8359,17.9354],[82.8198,17.9296],[82.8102,17.9354],[82.808,17.9243],[82.7988,17.9212],[82.7745,17.9387],[82.7779,17.9254],[82.7537,17.9585],[82.7508,17.9459],[82.7134,17.9543],[82.708,17.9465],[82.7231,17.9409],[82.7248,17.9314],[82.7046,17.9207],[82.7099,17.9135],[82.7014,17.8996],[82.6692,17.9077],[82.6651,17.9014],[82.7051,17.8856],[82.7007,17.8796],[82.7155,17.8673],[82.6977,17.8643],[82.6935,17.8497],[82.6796,17.8563],[82.6325,17.8324],[82.6216,17.8418],[82.6408,17.7922],[82.6314,17.793],[82.62,17.7775],[82.6123,17.7903],[82.6026,17.7726],[82.5877,17.7652],[82.5869,17.7733],[82.5641,17.7721],[82.5609,17.7469],[82.5531,17.7464],[82.5442,17.7172],[82.5272,17.7034],[82.4989,17.6941],[82.4955,17.7086],[82.5115,17.7234],[82.5005,17.7148],[82.4963,17.7229],[82.4586,17.738],[82.4508,17.7233],[82.4348,17.7248],[82.4244,17.7146],[82.4233,17.6989],[82.3972,17.6821],[82.38,17.6783],[82.3733,17.6866],[82.3581,17.6753],[82.3466,17.6776],[82.353,17.6589],[82.3419,17.6505],[82.3471,17.6431],[82.3735,17.6365],[82.3866,17.652],[82.3782,17.6559],[82.3794,17.6639],[82.4045,17.6714],[82.4105,17.6606],[82.395,17.6484],[82.4064,17.6419],[82.4289,17.6533],[82.4341,17.6364],[82.458,17.636],[82.4606,17.6074],[82.3483,17.5688],[82.3565,17.5749],[82.3526,17.5811],[82.37,17.5841],[82.3829,17.597],[82.341,17.5873],[82.3418,17.5742],[82.3288,17.5559],[82.3375,17.5244],[82.3337,17.5112],[82.2892,17.4778],[82.2849,17.4465],[82.2566,17.4342],[82.1996,17.3758],[82.1557,17.3569],[82.171,17.3451],[82.1485,17.316],[82.1866,17.3203],[82.1791,17.3085],[82.1302,17.3024],[82.1271,17.3119],[82.1412,17.3414],[82.132,17.3464],[82.1254,17.3454],[82.1221,17.3223],[82.1012,17.3251],[82.1082,17.3369],[82.0926,17.3472],[82.1209,17.38],[82.1172,17.3925],[82.1009,17.3865],[82.0987,17.4011],[82.0868,17.3886],[82.0844,17.3993],[82.0754,17.401],[82.0743,17.3849],[82.0575,17.3833],[82.0521,17.3752],[82.0621,17.3627],[82.0549,17.3437],[82.0623,17.3316],[82.0533,17.3153],[82.0639,17.3038],[82.0867,17.302],[82.094,17.2902],[82.0729,17.2864],[82.0662,17.2954],[82.048,17.2811],[82.038,17.2887],[82.0364,17.3069],[82.0112,17.3098],[82.0101,17.3166],[81.9992,17.3094],[81.9742,17.3153],[81.9764,17.3038],[81.9629,17.3007],[81.9648,17.2925],[81.9413,17.281],[81.916,17.2798],[81.9249,17.3139],[81.9131,17.3042],[81.8916,17.3185],[81.8804,17.3139],[81.8823,17.2971],[81.8675,17.2884],[81.8422,17.3102],[81.8288,17.31],[81.8262,17.2587],[81.8077,17.2607],[81.8056,17.246],[81.796,17.2436],[81.7658,17.2497],[81.7544,17.2346],[81.721,17.2346],[81.7194,17.2223],[81.7131,17.2234],[81.6809,17.2341],[81.6856,17.2732],[81.6594,17.2739],[81.6786,17.2897],[81.6775,17.3046],[81.6425,17.3242],[81.6178,17.328],[81.6121,17.3368],[81.6148,17.3522],[81.6047,17.3763],[81.6147,17.4064],[81.5839,17.4083],[81.575,17.4339],[81.5624,17.4406],[81.5285,17.4426],[81.5013,17.4805],[81.4744,17.4673],[81.4342,17.4628],[81.3921,17.472],[81.3834,17.4916],[81.3661,17.4986],[81.3136,17.4876],[81.2955,17.4961],[81.2816,17.535],[81.2474,17.5693],[81.2234,17.5643],[81.1336,17.5826],[81.1086,17.6202],[81.0396,17.5977],[81.0129,17.5991],[81.0069,17.6476],[80.9801,17.6526],[80.9388,17.6326],[80.9111,17.638],[80.9124,17.6578],[80.8978,17.6697],[80.905,17.6773],[80.8858,17.6812],[80.8947,17.7029],[80.8855,17.7357],[80.9171,17.748],[80.9286,17.7615],[80.9463,17.7602],[80.9659,17.7798],[80.9761,17.778],[80.9913,17.7499],[81.0406,17.7476],[81.0582,17.7331],[81.1015,17.7677],[81.0856,17.798],[81.094,17.8093],[81.1661,17.8576],[81.2663,17.8095],[81.3541,17.8123],[81.3919,17.7942],[81.395,17.8191],[81.4173,17.8143],[81.4305,17.8301],[81.4409,17.8253],[81.4691,17.8362],[81.4764,17.8371],[81.4863,17.8143],[81.4953,17.8126],[81.5637,17.8257],[81.5732,17.837],[81.6158,17.822],[81.6233,17.8339],[81.6398,17.8391],[81.6709,17.8872],[81.6873,17.8863],[81.6976,17.9012],[81.7097,17.8718],[81.7256,17.8789],[81.7901,17.9208],[81.8099,17.951],[81.8642,17.9627],[81.9052,17.9773],[81.9172,17.9899],[81.9615,17.9987],[81.9943,18.0273],[82.0078,18.0294],[82.0087,18.0577],[82.0323,18.0693],[82.0416,18.057],[82.0616,18.0555],[82.0766,18.0752],[82.1033,18.0603],[82.1347,18.059],[82.1372,18.0439],[82.1468,18.0523],[82.1688,18.052],[82.1866,18.0154],[82.2053,18.0184],[82.2222,18.0017],[82.2688,18.0009],[82.2727,18.0242],[82.2619,18.0413],[82.2726,18.0572],[82.3002,18.0691],[82.2986,18.0561],[82.3062,18.0557],[82.3073,18.0458],[82.3219,18.0476],[82.3223,18.0599],[82.3345,18.0513],[82.3439,18.058],[82.3516,18.077],[82.3466,18.0985],[82.3358,18.1059],[82.3402,18.1506],[82.3639,18.1348],[82.3723,18.1482],[82.3534,18.1717],[82.3155,18.184],[82.3108,18.2041],[82.3371,18.2243],[82.3244,18.2312],[82.3365,18.2408],[82.3334,18.2529],[82.3447,18.2805],[82.3748,18.2811],[82.3923,18.2979],[82.3924,18.3265],[82.3754,18.3286],[82.3559,18.3159],[82.3382,18.3267],[82.3844,18.3658],[82.3794,18.4042],[82.3642,18.4215],[82.3827,18.4338],[82.4035,18.4642],[82.4304,18.4855],[82.4456,18.5148],[82.4828,18.5487],[82.4919,18.5476],[82.4812,18.5402],[82.4859,18.5288],[82.5055,18.5135],[82.526,18.5163],[82.5318,18.5095],[82.5265,18.4963],[82.5342,18.4784],[82.5194,18.4656],[82.5333,18.4587],[82.5403,18.4438],[82.5432,18.4576],[82.5611,18.449],[82.5413,18.4216],[82.5445,18.4133],[82.5354,18.4071],[82.5405,18.3998],[82.5953,18.3887],[82.6057,18.3809],[82.6081,18.3645],[82.6176,18.361],[82.614,18.3507],[82.6019,18.3516],[82.6083,18.3265],[82.5941,18.3283],[82.5816,18.3142],[82.5985,18.3037],[82.5877,18.2764],[82.6384,18.2368],[82.651,18.251],[82.6423,18.2638],[82.6522,18.2804],[82.6421,18.3014],[82.6691,18.2989],[82.7094,18.3132],[82.7147,18.3224],[82.7339,18.3202],[82.7429,18.33],[82.7709,18.3375],[82.7906,18.3632],[82.785,18.3831],[82.794,18.3862],[82.7915,18.3961],[82.7995,18.4067],[82.7869,18.4107],[82.7822,18.4308],[82.8031,18.4492],[82.8156,18.4509],[82.8458,18.4338],[82.8524,18.4192],[82.8564,18.4254],[82.8705,18.4185],[82.895,18.4241],[82.8942,18.3816],[82.9131,18.3685],[82.9222,18.3754],[82.9397,18.3608],[82.9601,18.3664],[82.967,18.3589],[82.9982,18.3859],[83.0219,18.3917],[83.0545,18.38],[83.0771,18.4037]]]}},{"type":"Feature","properties":{"d":"ANAKAPALLI"},"geometry":{"type":"Polygon","coordinates":[[[82.3314,17.5034],[82.3375,17.5244],[82.3288,17.5559],[82.3418,17.5742],[82.3414,17.5876],[82.3829,17.597],[82.37,17.5841],[82.3526,17.5811],[82.3565,17.5749],[82.3483,17.5688],[82.4604,17.6071],[82.464,17.6182],[82.4601,17.6345],[82.4341,17.6364],[82.4289,17.6533],[82.4064,17.6419],[82.395,17.6484],[82.4105,17.6606],[82.4045,17.6714],[82.3794,17.6639],[82.3782,17.6559],[82.3866,17.652],[82.3735,17.6365],[82.3587,17.6361],[82.3419,17.6505],[82.353,17.6589],[82.3466,17.6776],[82.3581,17.6753],[82.3733,17.6866],[82.38,17.6783],[82.3972,17.6821],[82.4233,17.6989],[82.4244,17.7146],[82.4348,17.7248],[82.4508,17.7233],[82.4586,17.738],[82.4963,17.7229],[82.5005,17.7148],[82.5115,17.7234],[82.4955,17.7086],[82.4989,17.6941],[82.5272,17.7034],[82.5442,17.7172],[82.5531,17.7464],[82.5609,17.7469],[82.5641,17.7721],[82.5869,17.7733],[82.5877,17.7652],[82.6026,17.7726],[82.6123,17.7903],[82.62,17.7775],[82.6314,17.793],[82.6408,17.7922],[82.6188,17.8387],[82.6216,17.8418],[82.6325,17.8324],[82.6796,17.8563],[82.6935,17.8497],[82.6977,17.8643],[82.7155,17.8673],[82.7007,17.8796],[82.7051,17.8856],[82.6651,17.9014],[82.6692,17.9077],[82.7014,17.8996],[82.7099,17.9135],[82.7046,17.9207],[82.7248,17.9314],[82.7231,17.9409],[82.708,17.9465],[82.7134,17.9543],[82.7508,17.9459],[82.7537,17.9585],[82.7779,17.9254],[82.7745,17.9387],[82.8007,17.9211],[82.8102,17.9354],[82.8198,17.9296],[82.8359,17.9354],[82.8348,17.9485],[82.8553,17.961],[82.8431,17.9717],[82.849,17.9839],[82.8226,17.989],[82.8182,17.9983],[82.8482,18.0069],[82.8484,17.9995],[82.8596,17.999],[82.8862,18.0257],[82.887,18.01],[82.9284,18.0142],[82.9401,18.0077],[82.9355,17.9944],[82.9442,17.988],[82.96,18.0087],[82.9809,18.0155],[82.978,18.0271],[82.9959,18.0522],[83.0055,18.0546],[83.0024,18.0729],[83.0124,18.0823],[83.0249,18.0919],[83.0258,18.0844],[83.0283,18.094],[83.0326,18.0882],[83.0264,18.08],[83.0448,18.0775],[83.0508,18.0637],[83.024,18.0601],[83.0077,18.0357],[83.0154,18.0348],[83.0063,18.0236],[83.0117,17.9976],[83.0063,17.9773],[83.0523,17.9641],[83.0695,17.9445],[83.1105,17.9395],[83.1076,17.9234],[83.1251,17.9078],[83.1271,17.8773],[83.1444,17.8716],[83.1455,17.8454],[83.1613,17.8397],[83.1634,17.7768],[83.1567,17.7686],[83.1636,17.7582],[83.1567,17.7368],[83.1498,17.7189],[83.1219,17.7138],[83.1196,17.6953],[83.1098,17.6925],[83.1153,17.6824],[83.1372,17.6858],[83.1416,17.6733],[83.1536,17.6735],[83.1441,17.6561],[83.1513,17.6485],[83.1284,17.6117],[83.1126,17.5462],[83.0124,17.5031],[82.9921,17.4725],[82.7264,17.3549],[82.5423,17.2491],[82.5388,17.2641],[82.5254,17.272],[82.5181,17.2987],[82.5346,17.3061],[82.5354,17.3273],[82.5575,17.3262],[82.5658,17.3497],[82.5556,17.3521],[82.5437,17.3742],[82.5608,17.4084],[82.583,17.4248],[82.6046,17.4606],[82.5613,17.4911],[82.559,17.5222],[82.5526,17.5274],[82.5471,17.5135],[82.5317,17.5047],[82.5003,17.5083],[82.4873,17.4996],[82.4803,17.5012],[82.4763,17.5275],[82.4666,17.5362],[82.4607,17.5304],[82.4654,17.5124],[82.4498,17.5114],[82.4513,17.4808],[82.4103,17.4669],[82.3729,17.4796],[82.3675,17.4897],[82.3756,17.5108],[82.3592,17.5083],[82.3448,17.4944],[82.3314,17.5034]]]}},{"type":"Feature","properties":{"d":"ANANTHAPURAMU"},"geometry":{"type":"Polygon","coordinates":[[[77.6746,15.2309],[77.6818,15.2146],[77.6962,15.2077],[77.6931,15.1844],[77.7094,15.1846],[77.7165,15.1727],[77.7304,15.1704],[77.7296,15.1534],[77.7467,15.1413],[77.7477,15.1312],[77.7741,15.1246],[77.7709,15.1143],[77.7918,15.1065],[77.8158,15.1432],[77.8389,15.1452],[77.8428,15.1299],[77.8755,15.1355],[77.8883,15.1793],[77.9171,15.1732],[77.9231,15.1645],[77.924,15.1479],[77.9095,15.1399],[77.9148,15.1323],[77.9064,15.123],[77.9613,15.109],[77.9745,15.1392],[77.9933,15.1335],[78.0142,15.1122],[77.9951,15.0643],[78.0106,15.0511],[78.0106,15.0284],[78.0267,15.0167],[78.034,14.9998],[78.0547,14.9924],[78.06,15.0034],[78.0886,14.9826],[78.0874,14.9725],[78.1339,14.9616],[78.1372,14.9447],[78.1312,14.9345],[78.1131,14.9319],[78.0943,14.8846],[78.0891,14.8579],[78.1136,14.851],[78.1013,14.8174],[78.0762,14.8275],[78.0656,14.7976],[78.0461,14.7724],[78.0764,14.7527],[78.0666,14.7159],[78.0938,14.7139],[78.0965,14.7014],[78.1095,14.6927],[78.1347,14.6956],[78.1216,14.624],[78.0881,14.6307],[78.0646,14.5728],[78.0395,14.5667],[78.0421,14.5367],[78.0219,14.5335],[77.983,14.5468],[77.9875,14.5849],[77.982,14.5957],[77.9905,14.6123],[77.983,14.621],[77.8937,14.6481],[77.8787,14.6434],[77.8699,14.654],[77.8523,14.6402],[77.852,14.6],[77.8175,14.6007],[77.8044,14.6156],[77.7734,14.5951],[77.7393,14.5922],[77.736,14.5764],[77.7206,14.5796],[77.7116,14.5729],[77.7029,14.5442],[77.6934,14.5372],[77.6544,14.5359],[77.6497,14.5182],[77.6771,14.5055],[77.6686,14.4891],[77.6517,14.4836],[77.6357,14.4895],[77.6161,14.4779],[77.6094,14.46],[77.5808,14.4545],[77.5709,14.4622],[77.5466,14.4597],[77.5314,14.4752],[77.5316,14.4846],[77.5177,14.4888],[77.4862,14.4752],[77.4719,14.515],[77.4768,14.5436],[77.4692,14.5675],[77.4075,14.5495],[77.3902,14.5538],[77.356,14.5388],[77.3771,14.4979],[77.3588,14.4835],[77.3631,14.4618],[77.3327,14.4522],[77.3189,14.4104],[77.3173,14.3774],[77.3318,14.3533],[77.3293,14.34],[77.3172,14.3351],[77.3198,14.3116],[77.3557,14.2956],[77.3573,14.2766],[77.2864,14.2824],[77.2866,14.3395],[77.246,14.3174],[77.1974,14.3212],[77.1579,14.342],[77.1363,14.337],[77.1331,14.3138],[77.1156,14.2925],[77.1111,14.2626],[77.1205,14.2629],[77.1149,14.2231],[77.0812,14.2142],[77.0525,14.2455],[77.0057,14.2358],[76.9856,14.2473],[76.9401,14.2446],[76.9249,14.2738],[76.9567,14.2943],[76.9456,14.3132],[76.9034,14.3227],[76.8846,14.3475],[76.8848,14.3957],[76.8986,14.398],[76.9158,14.4207],[76.9427,14.3993],[76.946,14.4526],[76.9599,14.4506],[76.9748,14.4853],[76.9007,14.4892],[76.868,14.474],[76.8556,14.5096],[76.8328,14.5291],[76.8061,14.5314],[76.7802,14.5931],[76.765,14.6021],[76.7763,14.6831],[76.8029,14.7419],[76.7827,14.7859],[76.8367,14.7908],[76.8374,14.8106],[76.854,14.8094],[76.843,14.8377],[76.8538,14.8427],[76.8572,14.8691],[76.8525,14.887],[76.8455,14.8872],[76.8473,14.896],[76.8638,14.8956],[76.8696,14.9377],[76.8675,14.9698],[76.8419,14.9664],[76.8285,14.9565],[76.8183,14.9694],[76.7671,14.9749],[76.7606,14.9899],[76.775,14.9931],[76.7901,15.0207],[76.7736,15.0591],[76.7767,15.0784],[76.8002,15.0958],[76.836,15.0792],[76.8659,15.0597],[76.8772,15.0302],[76.9184,15.0355],[76.9852,15.0152],[76.986,15.0265],[77.0041,15.0338],[77.0496,15.0331],[77.0441,15.0098],[77.0825,15.0061],[77.0847,15.0307],[77.1129,15.0341],[77.1195,15.0457],[77.1301,15.1008],[77.1502,15.1116],[77.1604,15.147],[77.1803,15.1433],[77.188,15.1574],[77.2,15.1601],[77.2203,15.1484],[77.2649,15.142],[77.2712,15.1311],[77.2919,15.1313],[77.3176,15.1772],[77.3516,15.1779],[77.3631,15.2233],[77.3904,15.2176],[77.4243,15.2238],[77.4331,15.2208],[77.4342,15.2105],[77.4505,15.2055],[77.4512,15.2222],[77.4833,15.2089],[77.4984,15.2203],[77.5271,15.2243],[77.5823,15.1883],[77.6115,15.1838],[77.6158,15.2035],[77.6353,15.2074],[77.6383,15.2226],[77.6516,15.2329],[77.6746,15.2309]]]}},{"type":"Feature","properties":{"d":"ANNAMAYYA"},"geometry":{"type":"Polygon","coordinates":[[[78.193,13.5648],[78.1903,13.5901],[78.2037,13.6081],[78.2042,13.6284],[78.1682,13.6329],[78.1691,13.6539],[78.1554,13.6582],[78.1143,13.6574],[78.0989,13.6428],[78.0871,13.6431],[78.0897,13.6591],[78.0664,13.6764],[78.0736,13.6877],[78.0691,13.6978],[78.1132,13.6927],[78.1208,13.7156],[78.0915,13.7423],[78.0999,13.7585],[78.1138,13.7634],[78.1265,13.7885],[78.1379,13.7823],[78.1876,13.7882],[78.237,13.7788],[78.2615,13.7914],[78.2566,13.8344],[78.2408,13.8451],[78.265,13.8576],[78.2782,13.8895],[78.2728,13.8953],[78.2955,13.8925],[78.2981,13.9052],[78.3182,13.9208],[78.3313,13.918],[78.3373,13.9371],[78.3469,13.9352],[78.3705,13.9567],[78.3724,13.9448],[78.3866,13.9389],[78.4204,13.9636],[78.4271,13.9792],[78.4605,13.9874],[78.4693,14.0074],[78.4404,14.0189],[78.4399,14.0434],[78.4488,14.0525],[78.4425,14.0808],[78.4544,14.0846],[78.4613,14.1068],[78.4435,14.1381],[78.4782,14.1653],[78.4988,14.1718],[78.5248,14.1695],[78.5284,14.1544],[78.5648,14.1607],[78.5659,14.1717],[78.5876,14.1767],[78.5894,14.1883],[78.6267,14.2104],[78.6183,14.2346],[78.5991,14.2512],[78.5944,14.2734],[78.602,14.2826],[78.6496,14.2739],[78.6593,14.2654],[78.6533,14.2492],[78.6682,14.2461],[78.6836,14.2694],[78.6711,14.2984],[78.7371,14.295],[78.7696,14.3164],[78.8141,14.291],[78.8716,14.2978],[78.8807,14.3233],[78.9022,14.3217],[78.9113,14.2969],[78.9357,14.2715],[78.9696,14.2827],[78.9908,14.2703],[79.0252,14.29],[79.0679,14.2781],[79.1004,14.3058],[79.146,14.2945],[79.1552,14.3267],[79.1313,14.3377],[79.1224,14.3702],[79.1411,14.3711],[79.1652,14.3568],[79.184,14.3841],[79.2059,14.3885],[79.2027,14.3949],[79.2325,14.4147],[79.2426,14.441],[79.2846,14.4459],[79.2818,14.4719],[79.293,14.485],[79.3165,14.4769],[79.33,14.4261],[79.3643,14.3788],[79.367,14.3507],[79.3895,14.341],[79.4353,14.2434],[79.4224,14.2068],[79.4542,14.1012],[79.4368,14.0241],[79.4428,13.9982],[79.455,13.9879],[79.4499,13.9716],[79.4589,13.9468],[79.4344,13.8652],[79.4533,13.8292],[79.4564,13.8033],[79.4685,13.799],[79.4611,13.7897],[79.4201,13.7852],[79.4172,13.7647],[79.3744,13.7563],[79.3058,13.7241],[79.293,13.7597],[79.2416,13.761],[79.2422,13.7517],[79.2275,13.756],[79.1907,13.7935],[79.1951,13.8034],[79.2105,13.8072],[79.2112,13.8158],[79.1483,13.8654],[79.1266,13.8504],[79.0996,13.8507],[79.0907,13.881],[79.0236,13.8919],[79.0073,13.9065],[79.0101,13.8956],[79.0227,13.8923],[79.0208,13.8791],[79.0372,13.8742],[79.0454,13.8618],[79.0233,13.8582],[79.0252,13.8494],[79.0116,13.8445],[79.0161,13.8254],[79.042,13.8142],[79.0424,13.8053],[79.0213,13.8027],[79.0188,13.7845],[79.0231,13.7727],[79.0362,13.7712],[79.0387,13.7494],[78.9776,13.717],[78.9804,13.6881],[78.9944,13.6693],[78.9752,13.6576],[78.9885,13.6548],[78.9969,13.6316],[78.9643,13.6244],[78.974,13.6132],[78.9692,13.5953],[78.9578,13.5942],[78.9504,13.5831],[78.9335,13.5928],[78.9214,13.5801],[78.9111,13.58],[78.8974,13.5945],[78.8791,13.5924],[78.871,13.5982],[78.8866,13.6262],[78.8824,13.6596],[78.8625,13.6582],[78.8525,13.6781],[78.8518,13.6499],[78.8191,13.6126],[78.7949,13.6118],[78.8011,13.582],[78.7504,13.5865],[78.7389,13.5686],[78.7341,13.52],[78.7107,13.5042],[78.6927,13.5024],[78.6695,13.4609],[78.6543,13.4654],[78.6639,13.4782],[78.6629,13.4993],[78.6276,13.5171],[78.5871,13.5187],[78.5813,13.524],[78.5862,13.5408],[78.5823,13.5419],[78.5449,13.4845],[78.5298,13.4901],[78.4987,13.4832],[78.4764,13.4551],[78.4834,13.446],[78.5115,13.4479],[78.5007,13.4249],[78.5098,13.4258],[78.5254,13.4051],[78.5199,13.3965],[78.524,13.379],[78.4945,13.3572],[78.5049,13.3514],[78.4956,13.3271],[78.4483,13.3086],[78.4334,13.3305],[78.4011,13.3155],[78.3783,13.3372],[78.383,13.3436],[78.3849,13.3349],[78.4035,13.3361],[78.4084,13.3457],[78.3776,13.3631],[78.3651,13.3618],[78.3817,13.397],[78.3708,13.4695],[78.3788,13.482],[78.3753,13.509],[78.3855,13.5156],[78.4067,13.5769],[78.402,13.588],[78.3486,13.5869],[78.3262,13.5948],[78.2586,13.583],[78.2363,13.5986],[78.2326,13.586],[78.2192,13.5925],[78.193,13.5648]]]}},{"type":"Feature","properties":{"d":"BAPATLA"},"geometry":{"type":"Polygon","coordinates":[[[80.7583,16.2539],[80.8173,16.2411],[80.8203,16.2182],[80.8411,16.2158],[80.8282,16.1992],[80.8635,16.1329],[80.855,16.1039],[80.8677,16.1057],[80.8663,16.0913],[80.8755,16.0799],[80.8714,16.0687],[80.8807,16.0687],[80.8768,16.0531],[80.8913,16.0011],[80.8902,15.9611],[80.8966,15.9654],[80.898,15.9541],[80.8949,15.9231],[80.9032,15.9174],[80.8863,15.8565],[80.8726,15.8463],[80.8387,15.7645],[80.8308,15.7068],[80.8104,15.7207],[80.8175,15.7494],[80.7796,15.8353],[80.7887,15.8324],[80.7975,15.8105],[80.8095,15.8117],[80.8128,15.8284],[80.8006,15.8477],[80.7817,15.8631],[80.7485,15.874],[80.6806,15.8854],[80.5365,15.8523],[80.4479,15.8133],[80.3619,15.7634],[80.2881,15.6926],[80.2413,15.6117],[80.1763,15.6216],[80.1801,15.6373],[80.1709,15.6496],[80.1805,15.6876],[80.1864,15.6855],[80.1951,15.7021],[80.1884,15.7096],[80.2175,15.7618],[80.2286,15.7746],[80.2571,15.7553],[80.2713,15.7709],[80.2738,15.779],[80.2247,15.8066],[80.2216,15.7796],[80.2051,15.7629],[80.1975,15.7671],[80.1869,15.7572],[80.1844,15.7351],[80.1656,15.7249],[80.151,15.6982],[80.1406,15.6986],[80.1378,15.6908],[80.1116,15.7002],[80.1121,15.6893],[80.1281,15.682],[80.1227,15.6682],[80.0849,15.6868],[80.0693,15.6851],[80.0345,15.7079],[80.0223,15.6849],[79.9787,15.7006],[79.969,15.7156],[79.9411,15.6976],[79.9379,15.687],[79.8911,15.7095],[79.9212,15.7438],[79.908,15.7633],[79.9182,15.8224],[79.946,15.8319],[79.9499,15.8514],[79.9377,15.8572],[79.9299,15.8757],[79.9079,15.8838],[79.8799,15.9186],[79.8755,15.9355],[79.8941,15.9396],[79.8968,15.947],[79.9032,15.9427],[79.9123,15.9672],[79.8992,15.9708],[79.9026,15.9836],[79.8906,15.9878],[79.8904,15.9948],[79.8636,15.9957],[79.8665,16.0218],[79.8817,16.0393],[79.9174,16.0473],[79.9206,16.0628],[79.9158,16.075],[79.8955,16.0772],[79.8952,16.0875],[79.8685,16.0964],[79.8751,16.1291],[79.8668,16.1326],[79.8682,16.1413],[79.8786,16.1551],[79.9326,16.1326],[79.9534,16.1526],[79.9528,16.1646],[79.9723,16.155],[79.974,16.1464],[80.0006,16.1402],[80.0102,16.1193],[80.0206,16.1148],[80.0519,16.1293],[80.0406,16.0926],[80.0472,16.0857],[80.0741,16.0923],[80.0708,16.0789],[80.0826,16.0632],[80.091,16.0136],[80.1332,16.0199],[80.1373,16.0458],[80.1553,16.0459],[80.1878,16.0257],[80.1899,16.0383],[80.2299,16.0322],[80.2401,16.0525],[80.2607,16.046],[80.2625,16.0536],[80.3009,16.05],[80.3019,16.0557],[80.3184,16.0449],[80.3138,16.0291],[80.3279,16.0252],[80.3254,16.019],[80.3355,16.0153],[80.3454,16.0289],[80.3586,16.0271],[80.3718,16.0133],[80.4262,15.9998],[80.4268,15.9817],[80.4528,15.9818],[80.4587,16.0104],[80.4918,16.0091],[80.4999,16.0048],[80.4976,15.9953],[80.5299,16.0141],[80.5257,16.0001],[80.5343,15.9972],[80.5388,16.0089],[80.5611,16.0126],[80.5632,16.0311],[80.5811,16.0244],[80.5832,16.04],[80.597,16.0471],[80.5905,16.06],[80.5967,16.1006],[80.569,16.1218],[80.5718,16.1508],[80.5626,16.152],[80.5539,16.1327],[80.5434,16.141],[80.5534,16.1635],[80.5441,16.1652],[80.553,16.1777],[80.5632,16.1746],[80.5573,16.2041],[80.5718,16.2031],[80.5915,16.2367],[80.6036,16.2353],[80.6105,16.2216],[80.6432,16.2137],[80.6499,16.195],[80.6591,16.1952],[80.6666,16.1841],[80.6861,16.1987],[80.6921,16.2281],[80.7143,16.2304],[80.7191,16.2443],[80.7484,16.2315],[80.75,16.2486],[80.7583,16.2539]]]}},{"type":"Feature","properties":{"d":"CHITTOOR"},"geometry":{"type":"MultiPolygon","coordinates":[[[[79.7608,13.3184],[79.7567,13.2953],[79.7307,13.2829],[79.7947,13.2421],[79.7945,13.2263],[79.7848,13.2279],[79.7755,13.2153],[79.7643,13.2191],[79.755,13.2065],[79.7373,13.2365],[79.7314,13.2224],[79.7184,13.2165],[79.7027,13.2224],[79.7125,13.2447],[79.701,13.253],[79.6959,13.2386],[79.6843,13.2444],[79.6783,13.2617],[79.6957,13.2673],[79.6783,13.2974],[79.6742,13.2818],[79.6654,13.2787],[79.6639,13.2898],[79.6578,13.2838],[79.6518,13.2918],[79.6425,13.2901],[79.6413,13.2756],[79.6385,13.2875],[79.6316,13.2697],[79.6141,13.2827],[79.6061,13.2795],[79.6087,13.2875],[79.5956,13.2847],[79.5932,13.2647],[79.5826,13.2573],[79.5337,13.2784],[79.5441,13.3168],[79.5373,13.3386],[79.5785,13.3667],[79.6483,13.3533],[79.6492,13.3613],[79.6659,13.3668],[79.6603,13.4003],[79.6693,13.3982],[79.671,13.4079],[79.6916,13.4027],[79.6882,13.4352],[79.6943,13.4442],[79.7126,13.4397],[79.7158,13.4218],[79.709,13.4135],[79.732,13.3762],[79.732,13.3496],[79.7479,13.345],[79.7608,13.3184]]],[[[79.0362,13.7712],[79.0514,13.7797],[79.0887,13.782],[79.0817,13.7398],[79.0927,13.7248],[79.0747,13.6859],[79.0766,13.6693],[79.0539,13.6475],[79.0525,13.6131],[79.172,13.6031],[79.177,13.5928],[79.1695,13.5656],[79.1798,13.5465],[79.1441,13.5221],[79.1085,13.5147],[79.0806,13.5147],[79.0835,13.5302],[79.0748,13.5413],[79.0428,13.5557],[79.0437,13.54],[79.0075,13.5313],[78.9833,13.5104],[78.9805,13.4915],[78.997,13.4931],[79.0329,13.4725],[79.0475,13.4604],[79.0509,13.4434],[79.0698,13.4506],[79.0888,13.4431],[79.0906,13.4256],[79.1275,13.4172],[79.1431,13.421],[79.1416,13.4101],[79.1535,13.414],[79.157,13.4008],[79.2019,13.4086],[79.2263,13.4018],[79.2276,13.4109],[79.2065,13.4132],[79.2048,13.4215],[79.2111,13.4275],[79.2214,13.4172],[79.2583,13.4232],[79.2417,13.4265],[79.2395,13.4369],[79.2166,13.4369],[79.227,13.4483],[79.2395,13.441],[79.2699,13.4755],[79.3346,13.4904],[79.3429,13.4874],[79.3288,13.4674],[79.3523,13.4665],[79.393,13.4922],[79.4196,13.4865],[79.4589,13.5073],[79.4896,13.5107],[79.491,13.4953],[79.5182,13.494],[79.5018,13.4845],[79.4986,13.4708],[79.474,13.4713],[79.4858,13.4551],[79.5018,13.4643],[79.5242,13.4618],[79.5311,13.4507],[79.4996,13.4422],[79.4988,13.4212],[79.4837,13.4199],[79.4788,13.412],[79.4863,13.4002],[79.4794,13.3857],[79.4854,13.3835],[79.4986,13.3836],[79.5302,13.4036],[79.541,13.3977],[79.5357,13.3771],[79.5198,13.3726],[79.5088,13.3593],[79.5101,13.3342],[79.4974,13.332],[79.4997,13.3478],[79.4563,13.3386],[79.4354,13.3517],[79.4317,13.3367],[79.4147,13.33],[79.4054,13.335],[79.3984,13.3302],[79.402,13.3174],[79.3878,13.318],[79.3826,13.3109],[79.3898,13.2974],[79.4138,13.3002],[79.42,13.2895],[79.4305,13.3002],[79.4454,13.3013],[79.4337,13.275],[79.4084,13.2653],[79.4226,13.2513],[79.4185,13.243],[79.4377,13.2429],[79.4315,13.2361],[79.4398,13.2359],[79.4299,13.2312],[79.4309,13.2298],[79.4533,13.2385],[79.4538,13.2169],[79.4374,13.2196],[79.4439,13.2078],[79.4324,13.197],[79.4384,13.1882],[79.4092,13.194],[79.374,13.1893],[79.3877,13.1775],[79.3695,13.1729],[79.3792,13.1715],[79.38,13.1629],[79.3561,13.1646],[79.3655,13.1339],[79.3605,13.1235],[79.3451,13.1213],[79.3413,13.1368],[79.3187,13.1235],[79.3242,13.1185],[79.3119,13.1166],[79.319,13.1133],[79.3072,13.1055],[79.2943,13.1096],[79.3125,13.1261],[79.284,13.1228],[79.2803,13.1529],[79.2621,13.149],[79.2575,13.1607],[79.2453,13.1383],[79.2427,13.171],[79.2349,13.1708],[79.2273,13.1556],[79.2147,13.157],[79.21,13.1485],[79.2329,13.1394],[79.2344,13.1052],[79.1983,13.0813],[79.1907,13.0887],[79.1807,13.0842],[79.1921,13.0674],[79.1783,13.0592],[79.1921,13.0561],[79.1797,13.0545],[79.1804,13.0488],[79.193,13.0467],[79.1848,13.0299],[79.1631,13.0203],[79.1145,13.0393],[79.0983,13.0261],[79.0809,13.0257],[79.0629,13.0406],[79.0634,13.0531],[78.995,13.0866],[78.9723,13.0838],[78.9703,13.0747],[78.9492,13.084],[78.9239,13.0808],[78.9217,13.0661],[78.9126,13.0659],[78.9037,13.0477],[78.9292,13.0458],[78.9408,13.0364],[78.9371,13.0304],[78.9291,13.0365],[78.8916,13.0331],[78.8916,13.0971],[78.8751,13.0968],[78.871,13.0819],[78.842,13.0786],[78.8131,13.0891],[78.7943,13.0666],[78.7518,13.0549],[78.7145,13.0687],[78.7053,13.0152],[78.6562,13.0312],[78.6555,13.0152],[78.6209,12.9912],[78.6472,12.9662],[78.6381,12.9648],[78.657,12.9321],[78.6334,12.9317],[78.6016,12.8508],[78.6078,12.8219],[78.6004,12.8184],[78.5925,12.7827],[78.5556,12.7558],[78.5632,12.7513],[78.5553,12.7393],[78.5639,12.7376],[78.5544,12.7193],[78.5616,12.71],[78.5559,12.7002],[78.5349,12.6911],[78.5296,12.7102],[78.5443,12.7109],[78.5251,12.7154],[78.5209,12.7361],[78.5167,12.7244],[78.5053,12.743],[78.4891,12.742],[78.52,12.712],[78.5118,12.7077],[78.5031,12.7168],[78.4966,12.7033],[78.5074,12.6914],[78.4993,12.6751],[78.4679,12.6759],[78.4748,12.6476],[78.465,12.624],[78.4271,12.6352],[78.4126,12.6269],[78.3714,12.6271],[78.3436,12.6487],[78.301,12.6659],[78.2711,12.7051],[78.2446,12.7063],[78.2377,12.6858],[78.201,12.6917],[78.2099,12.7005],[78.2072,12.7082],[78.2312,12.7126],[78.241,12.7299],[78.231,12.7607],[78.2456,12.7883],[78.2522,12.8606],[78.2684,12.8677],[78.2821,12.8593],[78.3124,12.8585],[78.3136,12.8765],[78.331,12.8756],[78.3371,12.8824],[78.3345,12.8892],[78.3203,12.8873],[78.3235,12.9018],[78.3441,12.9085],[78.3541,12.9397],[78.3887,12.9069],[78.3964,12.9073],[78.3987,12.9173],[78.4122,12.9032],[78.4287,12.9021],[78.4349,12.9118],[78.4456,12.9118],[78.4472,12.8922],[78.4641,12.8777],[78.4648,12.8668],[78.4667,12.9054],[78.438,12.929],[78.4282,12.9321],[78.4188,12.9217],[78.4112,12.9453],[78.4204,12.9477],[78.4193,12.9587],[78.438,12.964],[78.4353,12.981],[78.4675,12.975],[78.4748,12.9914],[78.4636,13.0053],[78.4622,13.0432],[78.4731,13.0429],[78.4785,13.0545],[78.5143,13.0619],[78.5095,13.0915],[78.5385,13.1057],[78.5185,13.1198],[78.517,13.1316],[78.5446,13.142],[78.5484,13.1485],[78.5414,13.1557],[78.5501,13.1642],[78.5798,13.1674],[78.5761,13.1867],[78.5673,13.1933],[78.5498,13.1897],[78.5501,13.2002],[78.5678,13.2015],[78.5795,13.2156],[78.5664,13.2209],[78.5701,13.2471],[78.5853,13.2622],[78.5874,13.2806],[78.5786,13.2804],[78.5695,13.3092],[78.5632,13.3094],[78.5648,13.2947],[78.5564,13.2838],[78.5393,13.2879],[78.5322,13.2669],[78.514,13.2906],[78.4793,13.3013],[78.485,13.3277],[78.4956,13.3271],[78.5047,13.3497],[78.4945,13.3572],[78.524,13.379],[78.5199,13.3965],[78.5254,13.4051],[78.5098,13.4258],[78.5007,13.4249],[78.5115,13.4479],[78.4834,13.446],[78.4764,13.4551],[78.4987,13.4832],[78.5298,13.4901],[78.5449,13.4845],[78.5834,13.5421],[78.5871,13.5187],[78.6276,13.5171],[78.6629,13.4993],[78.6639,13.4782],[78.6543,13.4654],[78.6695,13.4609],[78.6927,13.5024],[78.7107,13.5042],[78.7341,13.52],[78.7389,13.5686],[78.7504,13.5865],[78.8011,13.582],[78.7949,13.6118],[78.8191,13.6126],[78.8518,13.6499],[78.8525,13.6781],[78.8625,13.6582],[78.8824,13.6596],[78.8866,13.6262],[78.871,13.5982],[78.8974,13.5945],[78.9117,13.5798],[78.9273,13.5815],[78.9335,13.5928],[78.9537,13.5836],[78.9717,13.6008],[78.974,13.6132],[78.9643,13.6244],[78.9969,13.6316],[78.9885,13.6548],[78.9779,13.6527],[78.9752,13.6576],[78.9944,13.6693],[78.9804,13.6881],[78.9776,13.717],[79.0366,13.7458],[79.0362,13.7712]]]]}},{"type":"Feature","properties":{"d":"DR.B.R.AMBEDKAR KONASEEMA"},"geometry":{"type":"Polygon","coordinates":[[[81.8419,16.6473],[81.785,16.7093],[81.7948,16.733],[81.7909,16.7454],[81.765,16.7614],[81.7445,16.7934],[81.7516,16.8511],[81.7332,16.88],[81.7312,16.9142],[81.7241,16.9143],[81.7292,16.9443],[81.7421,16.9608],[81.7828,16.9656],[81.7773,16.9465],[81.8089,16.8629],[81.8304,16.8661],[81.8304,16.8745],[81.8481,16.8697],[81.8505,16.8476],[81.8618,16.8451],[81.8696,16.85],[81.8662,16.8707],[81.8825,16.8892],[81.8821,16.9011],[81.8626,16.9052],[81.8701,16.9324],[81.8616,16.9402],[81.8868,16.9514],[81.9035,16.9489],[81.9176,16.9806],[81.9182,16.9698],[81.9309,16.9726],[81.9386,16.966],[81.9369,16.9151],[81.9572,16.8999],[81.9498,16.8758],[81.9588,16.87],[81.9556,16.8249],[81.9646,16.823],[81.9785,16.8555],[81.9743,16.8645],[81.9829,16.8646],[81.9871,16.8761],[81.9825,16.8965],[81.9946,16.896],[82.002,16.9182],[82.0298,16.9044],[82.0282,16.8952],[82.0396,16.9051],[82.0525,16.8752],[82.0726,16.8772],[82.0746,16.8849],[82.0941,16.8833],[82.104,16.8634],[82.0832,16.8514],[82.0925,16.842],[82.0892,16.8338],[82.1003,16.8438],[82.1113,16.836],[82.0994,16.8066],[82.1089,16.8058],[82.1048,16.7911],[82.1145,16.7872],[82.1214,16.7601],[82.14,16.7491],[82.1514,16.751],[82.1377,16.7461],[82.139,16.7364],[82.1253,16.7235],[82.1465,16.7261],[82.1408,16.7199],[82.1487,16.7121],[82.1451,16.7047],[82.1865,16.7081],[82.2008,16.7186],[82.2392,16.7162],[82.2667,16.6946],[82.2923,16.7033],[82.3138,16.7285],[82.2995,16.7681],[82.3039,16.7773],[82.3213,16.7772],[82.3333,16.7167],[82.3449,16.7055],[82.3277,16.6849],[82.354,16.7056],[82.3464,16.7156],[82.3537,16.7136],[82.355,16.7043],[82.3599,16.7108],[82.3653,16.7067],[82.3455,16.6965],[82.3173,16.6623],[82.3291,16.6145],[82.3189,16.5768],[82.3136,16.5749],[82.3178,16.5817],[82.3148,16.5811],[82.3092,16.5926],[82.318,16.5872],[82.3255,16.6168],[82.3128,16.668],[82.3121,16.6271],[82.3069,16.6228],[82.3075,16.6399],[82.3042,16.6288],[82.3045,16.6367],[82.296,16.626],[82.2999,16.6363],[82.2956,16.626],[82.2843,16.626],[82.2904,16.6097],[82.2849,16.6],[82.2946,16.6025],[82.2988,16.5864],[82.2873,16.571],[82.2631,16.563],[82.2769,16.5594],[82.2935,16.563],[82.2937,16.5676],[82.2972,16.5676],[82.2937,16.5581],[82.281,16.5586],[82.29,16.5549],[82.2996,16.5582],[82.2992,16.5722],[82.3009,16.5624],[82.3107,16.5677],[82.3134,16.5648],[82.3137,16.5587],[82.3129,16.5635],[82.2995,16.5559],[82.2349,16.546],[81.9704,16.4076],[81.9577,16.3924],[81.9394,16.3954],[81.8782,16.3826],[81.7179,16.3066],[81.7192,16.3156],[81.7106,16.3168],[81.717,16.3588],[81.6975,16.4137],[81.7102,16.4432],[81.7241,16.4459],[81.7364,16.4223],[81.7549,16.4232],[81.7997,16.4776],[81.8484,16.5018],[81.8448,16.5292],[81.8571,16.611],[81.8419,16.6473]]]}},{"type":"Feature","properties":{"d":"EAST GODAVARI"},"geometry":{"type":"MultiPolygon","coordinates":[[[[81.6594,17.2739],[81.6856,17.2732],[81.6809,17.2341],[81.7194,17.2223],[81.721,17.2346],[81.7544,17.2346],[81.7658,17.2497],[81.8006,17.2446],[81.8077,17.2607],[81.8265,17.2589],[81.8281,17.3098],[81.8422,17.3102],[81.8675,17.2884],[81.8823,17.2971],[81.8804,17.3139],[81.8916,17.3185],[81.9131,17.3042],[81.9249,17.3139],[81.916,17.2798],[81.9413,17.281],[81.9648,17.2925],[81.9629,17.3007],[81.9764,17.3038],[81.9742,17.3153],[81.9992,17.3094],[82.0104,17.3166],[82.0112,17.3098],[82.0364,17.3069],[82.0388,17.2986],[82.038,17.2887],[82.0212,17.2852],[82.0067,17.2625],[81.9669,17.2623],[81.9511,17.2501],[81.9529,17.2362],[81.9371,17.2008],[81.9075,17.1928],[81.8986,17.1692],[81.9109,17.1722],[81.9111,17.1342],[81.9249,17.103],[81.958,17.1183],[82.001,17.1191],[82.0465,17.0913],[82.0476,17.0742],[82.0311,17.0638],[82.0307,17.0379],[82.0745,17.0422],[82.078,17.0339],[82.0608,17.0123],[82.0591,16.9935],[82.066,16.9923],[82.0736,16.957],[82.0633,16.9444],[82.0663,16.9285],[82.0562,16.8989],[82.0743,16.8978],[82.0726,16.8772],[82.0525,16.8752],[82.0396,16.9051],[82.0282,16.8952],[82.0298,16.9044],[82.002,16.9182],[81.9946,16.896],[81.9825,16.8965],[81.9871,16.8761],[81.9829,16.8646],[81.9743,16.8645],[81.9785,16.8555],[81.9646,16.823],[81.9556,16.8249],[81.9588,16.87],[81.9498,16.8758],[81.9572,16.8999],[81.9369,16.9151],[81.9386,16.966],[81.9309,16.9726],[81.9182,16.9698],[81.9176,16.9806],[81.9035,16.9489],[81.8868,16.9514],[81.8616,16.9402],[81.8701,16.9324],[81.8626,16.9052],[81.8821,16.9011],[81.8825,16.8892],[81.8657,16.8694],[81.8694,16.8495],[81.8505,16.8476],[81.8481,16.8697],[81.8304,16.8745],[81.8304,16.8661],[81.8089,16.8629],[81.7773,16.9465],[81.7828,16.9656],[81.7421,16.9608],[81.7292,16.9443],[81.7241,16.9143],[81.7312,16.9142],[81.7332,16.88],[81.7516,16.8511],[81.7445,16.7934],[81.765,16.7614],[81.7909,16.7454],[81.7948,16.733],[81.785,16.7093],[81.8015,16.6946],[81.7882,16.6945],[81.789,16.6848],[81.7684,16.681],[81.7679,16.6739],[81.7587,16.6741],[81.7598,16.6922],[81.7494,16.7049],[81.7527,16.7278],[81.7204,16.7288],[81.7257,16.7718],[81.7213,16.7644],[81.6899,16.7666],[81.6876,16.7611],[81.6821,16.7674],[81.6803,16.7613],[81.625,16.7954],[81.6563,16.8513],[81.6366,16.8539],[81.6242,16.891],[81.6069,16.9045],[81.5732,16.9017],[81.553,16.9187],[81.5394,16.9481],[81.5278,16.9426],[81.4896,16.972],[81.4848,16.9095],[81.4712,16.8975],[81.4425,16.9006],[81.451,16.8851],[81.3945,16.8639],[81.3874,16.876],[81.3891,16.9072],[81.3721,16.9092],[81.3625,16.8976],[81.3359,16.8986],[81.3251,16.9186],[81.3315,16.9286],[81.2918,16.938],[81.3127,16.9684],[81.332,16.9664],[81.3126,16.9729],[81.3369,16.9907],[81.3672,16.9868],[81.374,17.0042],[81.3677,17.0273],[81.3973,17.0466],[81.4296,17.0442],[81.4424,17.0111],[81.4542,17.0075],[81.4518,17.0431],[81.4337,17.0539],[81.4301,17.0692],[81.4524,17.078],[81.4577,17.0921],[81.4456,17.1084],[81.4665,17.1143],[81.4757,17.1307],[81.4707,17.1654],[81.453,17.1591],[81.4759,17.1751],[81.4765,17.1853],[81.497,17.1932],[81.4987,17.2017],[81.5378,17.206],[81.5475,17.2154],[81.5703,17.2075],[81.5918,17.2128],[81.5877,17.195],[81.5974,17.1785],[81.6111,17.1819],[81.6486,17.1661],[81.6582,17.1701],[81.6407,17.2091],[81.6594,17.2739]]],[[[81.7455,16.9438],[81.7469,16.9248],[81.7444,16.9241],[81.7399,16.933],[81.7455,16.9438]]]]}},{"type":"Feature","properties":{"d":"ELURU"},"geometry":{"type":"Polygon","coordinates":[[[81.6594,17.2739],[81.6407,17.2091],[81.6582,17.1701],[81.6486,17.1661],[81.6111,17.1819],[81.5974,17.1785],[81.5877,17.195],[81.5918,17.2128],[81.5703,17.2075],[81.5475,17.2154],[81.5378,17.206],[81.4987,17.2017],[81.497,17.1932],[81.4765,17.1853],[81.4759,17.1751],[81.453,17.1591],[81.4707,17.1654],[81.4757,17.1307],[81.4665,17.1143],[81.4456,17.1084],[81.4577,17.0921],[81.4524,17.078],[81.4301,17.0692],[81.4337,17.0539],[81.4518,17.0431],[81.4542,17.0075],[81.4424,17.0111],[81.4296,17.0442],[81.3973,17.0466],[81.3677,17.0273],[81.374,17.0042],[81.3672,16.9868],[81.3369,16.9907],[81.3126,16.9729],[81.332,16.9664],[81.3127,16.9684],[81.2918,16.938],[81.3315,16.9286],[81.3251,16.9186],[81.3359,16.8986],[81.3625,16.8976],[81.3721,16.9092],[81.3891,16.9072],[81.3874,16.876],[81.3945,16.8639],[81.4382,16.876],[81.4518,16.8868],[81.4425,16.9006],[81.4604,16.8991],[81.4572,16.8703],[81.4751,16.8649],[81.4867,16.8187],[81.4974,16.8131],[81.4724,16.7796],[81.4775,16.7607],[81.4658,16.7544],[81.4408,16.7569],[81.4432,16.7345],[81.4582,16.7104],[81.4575,16.6998],[81.4412,16.6966],[81.4428,16.6884],[81.4578,16.6827],[81.4461,16.6663],[81.3785,16.6666],[81.3432,16.6579],[81.3401,16.6743],[81.3532,16.6789],[81.3533,16.6926],[81.3289,16.6892],[81.3337,16.6706],[81.3276,16.6196],[81.3433,16.6079],[81.3545,16.6106],[81.3572,16.5999],[81.3466,16.5922],[81.3436,16.531],[81.3325,16.511],[81.3707,16.4997],[81.369,16.4754],[81.3784,16.4681],[81.3737,16.4613],[81.3909,16.4405],[81.4014,16.4384],[81.4028,16.4277],[81.3869,16.4101],[81.344,16.406],[81.3354,16.4172],[81.3193,16.4195],[81.3257,16.443],[81.3219,16.4593],[81.3156,16.4595],[81.2932,16.4537],[81.3052,16.4387],[81.2791,16.4297],[81.2543,16.4029],[81.2337,16.4125],[81.2317,16.4276],[81.217,16.4202],[81.2048,16.3812],[81.1733,16.387],[81.1742,16.4027],[81.1597,16.4048],[81.1402,16.3764],[81.1097,16.3885],[81.1031,16.3808],[81.0837,16.3832],[81.0802,16.3945],[81.0622,16.3984],[81.064,16.4124],[81.0449,16.421],[81.0457,16.4328],[81.0675,16.4422],[81.0819,16.4319],[81.0938,16.4677],[81.0832,16.4827],[81.0898,16.4953],[81.1129,16.4971],[81.1184,16.513],[81.1015,16.5211],[81.1076,16.5534],[81.0985,16.5556],[81.0995,16.565],[81.116,16.5716],[81.1095,16.5768],[81.1116,16.5918],[81.0987,16.6006],[81.0889,16.5933],[81.0949,16.5876],[81.0788,16.5751],[81.0224,16.557],[81.0114,16.5604],[81.0063,16.5864],[80.9729,16.6265],[80.9543,16.6717],[80.9331,16.6744],[80.9299,16.6914],[80.906,16.7057],[80.9088,16.7142],[80.8734,16.7109],[80.8762,16.6892],[80.8556,16.6868],[80.8595,16.6695],[80.8839,16.6566],[80.8848,16.6323],[80.8736,16.6161],[80.8623,16.6245],[80.8481,16.6101],[80.8364,16.6133],[80.8364,16.6434],[80.8252,16.6528],[80.8193,16.6758],[80.8089,16.6606],[80.8175,16.6512],[80.7992,16.6346],[80.7931,16.6428],[80.7789,16.622],[80.7553,16.6303],[80.7335,16.6239],[80.6971,16.6274],[80.6879,16.6347],[80.6895,16.6724],[80.7666,16.7877],[80.7762,16.8203],[80.7711,16.8486],[80.7963,16.8596],[80.7994,16.8814],[80.8259,16.879],[80.8472,16.889],[80.856,16.9141],[80.8245,16.9308],[80.8258,16.9937],[80.7984,17.0045],[80.7793,17.0262],[80.7971,17.0618],[80.8453,17.04],[80.8649,17.0577],[80.8765,17.0745],[80.8687,17.078],[80.8763,17.1049],[80.8683,17.1205],[80.8783,17.1351],[80.8794,17.1608],[80.924,17.1585],[80.9188,17.22],[80.939,17.2202],[80.9984,17.1907],[81.0312,17.1906],[81.0487,17.2071],[81.0545,17.2245],[81.0796,17.2155],[81.1711,17.2312],[81.1876,17.2551],[81.1766,17.2879],[81.1904,17.3251],[81.2335,17.3206],[81.2456,17.3261],[81.274,17.3175],[81.3054,17.3465],[81.3226,17.3745],[81.3134,17.4081],[81.2685,17.4183],[81.2086,17.4469],[81.2027,17.434],[81.1933,17.4356],[81.1723,17.449],[81.1755,17.4636],[81.1483,17.4637],[81.1596,17.4843],[81.1421,17.4886],[81.1385,17.5162],[81.1245,17.5271],[81.0993,17.5044],[81.0801,17.515],[81.0199,17.52],[80.9984,17.5647],[80.9694,17.5981],[80.8554,17.6019],[80.8498,17.6228],[80.8609,17.6338],[80.9,17.6401],[80.9388,17.6326],[80.9701,17.6497],[80.9958,17.6528],[81.0095,17.6436],[81.0067,17.6111],[81.0129,17.5991],[81.0396,17.5977],[81.1086,17.6202],[81.1336,17.5826],[81.2584,17.564],[81.2881,17.524],[81.2955,17.4961],[81.3136,17.4876],[81.3661,17.4986],[81.3834,17.4916],[81.3921,17.472],[81.4342,17.4628],[81.4744,17.4673],[81.5013,17.4805],[81.5285,17.4426],[81.5624,17.4406],[81.575,17.4339],[81.5839,17.4083],[81.6147,17.4064],[81.6047,17.3763],[81.6148,17.3522],[81.6121,17.3368],[81.6178,17.328],[81.6425,17.3242],[81.6794,17.3017],[81.6786,17.2897],[81.6594,17.2739]]]}},{"type":"Feature","properties":{"d":"GUNTUR"},"geometry":{"type":"Polygon","coordinates":[[[80.5552,16.5331],[80.6705,16.4656],[80.6629,16.4499],[80.666,16.4409],[80.6747,16.4427],[80.6742,16.4248],[80.7256,16.3808],[80.7485,16.33],[80.7993,16.2824],[80.8027,16.2425],[80.7583,16.2539],[80.75,16.2486],[80.7484,16.2315],[80.7191,16.2443],[80.7143,16.2304],[80.6921,16.2281],[80.6861,16.1987],[80.6666,16.1841],[80.6591,16.1952],[80.6499,16.195],[80.6432,16.2137],[80.6105,16.2216],[80.6036,16.2353],[80.5915,16.2367],[80.5718,16.2031],[80.5573,16.2041],[80.5632,16.1746],[80.553,16.1777],[80.5441,16.1652],[80.5534,16.1635],[80.5434,16.141],[80.5539,16.1327],[80.5626,16.152],[80.5718,16.1508],[80.569,16.1218],[80.5967,16.1006],[80.5905,16.06],[80.597,16.0471],[80.5832,16.04],[80.5811,16.0244],[80.5632,16.0311],[80.5611,16.0126],[80.5388,16.0089],[80.5343,15.9972],[80.5257,16.0001],[80.5299,16.0141],[80.4976,15.9953],[80.4999,16.0048],[80.4918,16.0091],[80.4587,16.0104],[80.4528,15.9818],[80.4268,15.9817],[80.4262,15.9998],[80.3718,16.0133],[80.3586,16.0271],[80.3454,16.0289],[80.3355,16.0153],[80.3254,16.019],[80.3279,16.0252],[80.3138,16.0291],[80.3184,16.0449],[80.3019,16.0557],[80.3009,16.05],[80.2625,16.0536],[80.2607,16.046],[80.2401,16.0525],[80.2373,16.0373],[80.2298,16.0379],[80.2311,16.0825],[80.262,16.0973],[80.2847,16.0927],[80.2894,16.1031],[80.2678,16.1259],[80.278,16.1429],[80.2731,16.1566],[80.293,16.1677],[80.2958,16.1885],[80.2756,16.1981],[80.2643,16.188],[80.2597,16.1929],[80.2751,16.1999],[80.2799,16.2179],[80.2891,16.2154],[80.3237,16.2511],[80.3471,16.2858],[80.3521,16.3089],[80.3471,16.3146],[80.3373,16.3007],[80.3402,16.3093],[80.3308,16.3155],[80.3145,16.3014],[80.311,16.2864],[80.2739,16.2554],[80.2772,16.2668],[80.2438,16.2739],[80.2303,16.2465],[80.2185,16.2497],[80.2204,16.2581],[80.2014,16.2629],[80.1914,16.278],[80.1779,16.2792],[80.1794,16.2644],[80.1626,16.2698],[80.1536,16.2594],[80.1291,16.2706],[80.1267,16.31],[80.1582,16.3022],[80.1616,16.3255],[80.1759,16.3225],[80.1821,16.3574],[80.1956,16.3551],[80.2042,16.3421],[80.2213,16.3421],[80.219,16.3498],[80.2308,16.3651],[80.2311,16.3826],[80.2197,16.3887],[80.227,16.4006],[80.2412,16.4156],[80.2726,16.4143],[80.2812,16.4312],[80.3012,16.4278],[80.318,16.4631],[80.3674,16.4601],[80.378,16.4652],[80.3811,16.4786],[80.4251,16.4776],[80.4197,16.5052],[80.4075,16.508],[80.4067,16.5257],[80.4285,16.5593],[80.4285,16.5891],[80.4674,16.5894],[80.5021,16.5776],[80.5545,16.5418],[80.5552,16.5331]]]}},{"type":"Feature","properties":{"d":"KAKINADA"},"geometry":{"type":"Polygon","coordinates":[[[82.5423,17.2491],[82.4431,17.1748],[82.3191,17.0574],[82.2883,17.016],[82.2696,16.9402],[82.243,16.9178],[82.2505,16.8799],[82.2617,16.883],[82.2655,16.8703],[82.2816,16.872],[82.2817,16.8652],[82.3022,16.8623],[82.3142,16.8459],[82.3361,16.8566],[82.3538,16.851],[82.3627,16.8726],[82.3562,16.9543],[82.3255,16.9858],[82.3384,16.9867],[82.3556,16.9678],[82.3653,16.877],[82.3393,16.7161],[82.3334,16.7168],[82.3213,16.7772],[82.3007,16.7772],[82.3055,16.7482],[82.2897,16.7266],[82.2572,16.7204],[82.2175,16.7327],[82.232,16.7547],[82.2277,16.7607],[82.2142,16.7526],[82.2059,16.7349],[82.1863,16.737],[82.2017,16.7134],[82.1451,16.7047],[82.1487,16.7121],[82.1408,16.7199],[82.1465,16.7261],[82.1253,16.7235],[82.139,16.7364],[82.1377,16.7461],[82.1514,16.751],[82.14,16.7491],[82.1214,16.7601],[82.1145,16.7872],[82.1048,16.7911],[82.1089,16.8058],[82.0994,16.8066],[82.1113,16.836],[82.1003,16.8438],[82.0959,16.8341],[82.0892,16.8338],[82.0925,16.842],[82.0832,16.8514],[82.1048,16.8664],[82.0941,16.8733],[82.0941,16.8833],[82.0746,16.8849],[82.0743,16.8978],[82.0563,16.8981],[82.0663,16.9285],[82.0633,16.9444],[82.0736,16.957],[82.066,16.9923],[82.0591,16.993],[82.0605,17.011],[82.0773,17.0286],[82.0771,17.0389],[82.0307,17.0379],[82.0311,17.0638],[82.0476,17.0742],[82.0465,17.0913],[82.001,17.1191],[81.958,17.1183],[81.9249,17.103],[81.9111,17.1342],[81.9109,17.1722],[81.8986,17.1692],[81.9075,17.1928],[81.9371,17.2008],[81.9529,17.2362],[81.9511,17.2501],[81.9669,17.2623],[82.0055,17.2619],[82.0263,17.2871],[82.0408,17.2886],[82.048,17.2811],[82.0662,17.2954],[82.0729,17.2864],[82.094,17.2902],[82.0867,17.302],[82.0639,17.3038],[82.0533,17.3153],[82.0623,17.3316],[82.0549,17.3437],[82.0621,17.3627],[82.0521,17.3752],[82.0575,17.3833],[82.0743,17.3849],[82.0754,17.401],[82.0844,17.3993],[82.0868,17.3886],[82.0987,17.4011],[82.1009,17.3865],[82.1172,17.3925],[82.1209,17.38],[82.0926,17.3472],[82.1082,17.3369],[82.1012,17.3251],[82.1221,17.3223],[82.1254,17.3454],[82.132,17.3464],[82.1412,17.3414],[82.1271,17.3119],[82.1302,17.3024],[82.1791,17.3085],[82.1866,17.3203],[82.1485,17.316],[82.171,17.3451],[82.1557,17.3569],[82.1996,17.3758],[82.2566,17.4342],[82.2849,17.4465],[82.2892,17.4778],[82.3161,17.501],[82.3337,17.5112],[82.3314,17.5034],[82.3448,17.4944],[82.3592,17.5083],[82.3756,17.5108],[82.3675,17.4897],[82.3729,17.4796],[82.4103,17.4669],[82.4378,17.4714],[82.4542,17.4902],[82.4498,17.5114],[82.4651,17.512],[82.4683,17.5188],[82.4607,17.5304],[82.4666,17.5362],[82.4763,17.5275],[82.4803,17.5012],[82.4873,17.4996],[82.5003,17.5083],[82.5179,17.5021],[82.5373,17.5069],[82.5526,17.5274],[82.559,17.5222],[82.5613,17.4911],[82.6046,17.4606],[82.583,17.4248],[82.5608,17.4084],[82.5437,17.3742],[82.5556,17.3521],[82.5658,17.3497],[82.5575,17.3262],[82.5354,17.3273],[82.5346,17.3061],[82.5181,17.2987],[82.5254,17.272],[82.5388,17.2641],[82.5423,17.2491]]]}},{"type":"Feature","properties":{"d":"KRISHNA"},"geometry":{"type":"MultiPolygon","coordinates":[[[[80.6971,16.6274],[80.7335,16.6239],[80.7553,16.6303],[80.7789,16.622],[80.7931,16.6428],[80.7992,16.6346],[80.8175,16.6512],[80.8089,16.6606],[80.8193,16.6758],[80.8252,16.6528],[80.8364,16.6434],[80.8364,16.6133],[80.8481,16.6101],[80.8623,16.6245],[80.8736,16.6161],[80.8848,16.6323],[80.8839,16.6566],[80.8595,16.6695],[80.8556,16.6868],[80.8762,16.6892],[80.8734,16.7109],[80.9088,16.7142],[80.906,16.7057],[80.9299,16.6914],[80.9331,16.6744],[80.9543,16.6717],[80.9729,16.6265],[81.0063,16.5864],[81.0114,16.5604],[81.0224,16.557],[81.0788,16.5751],[81.0949,16.5876],[81.0889,16.5933],[81.0987,16.6006],[81.1116,16.5918],[81.1095,16.5768],[81.116,16.5716],[81.0995,16.565],[81.0985,16.5556],[81.1076,16.5534],[81.1015,16.5211],[81.1184,16.513],[81.1129,16.4971],[81.0898,16.4953],[81.0832,16.4827],[81.0938,16.4677],[81.0819,16.4319],[81.0675,16.4422],[81.0457,16.4328],[81.0449,16.421],[81.064,16.4124],[81.0622,16.3984],[81.0802,16.3945],[81.0837,16.3832],[81.1031,16.3808],[81.1097,16.3885],[81.1402,16.3764],[81.1597,16.4048],[81.1742,16.4027],[81.1733,16.387],[81.2048,16.3812],[81.217,16.4202],[81.2317,16.4276],[81.2337,16.4125],[81.2543,16.4029],[81.2791,16.4297],[81.3052,16.4387],[81.2932,16.4537],[81.3202,16.4595],[81.3259,16.439],[81.3193,16.4195],[81.3354,16.4172],[81.3432,16.4062],[81.3843,16.4086],[81.4028,16.4277],[81.4252,16.4199],[81.4377,16.3985],[81.4527,16.4051],[81.4699,16.3985],[81.4922,16.3709],[81.5127,16.3703],[81.523,16.381],[81.5467,16.3783],[81.552,16.368],[81.5521,16.346],[81.4872,16.3551],[81.3938,16.3425],[81.3144,16.3089],[81.2462,16.2589],[81.2138,16.2072],[81.1914,16.1028],[81.1476,16.0194],[81.1427,15.9994],[81.148,15.9737],[81.1349,15.9722],[81.1325,15.9621],[81.0554,15.8972],[81.0048,15.8378],[81.0206,15.793],[81.0082,15.7974],[81.0121,15.7661],[80.9985,15.7697],[80.9993,15.7589],[81.0095,15.7618],[81.0085,15.7529],[80.9372,15.7144],[80.932,15.7237],[80.8304,15.7061],[80.8415,15.7721],[80.8971,15.8887],[80.9032,15.9174],[80.8949,15.9231],[80.8967,15.9653],[80.8902,15.9611],[80.8913,16.0011],[80.8768,16.0531],[80.8807,16.0687],[80.8714,16.0687],[80.8755,16.0799],[80.8663,16.0913],[80.8677,16.1057],[80.8549,16.1043],[80.8635,16.1329],[80.8282,16.1992],[80.8411,16.2158],[80.8203,16.2182],[80.8173,16.2411],[80.8027,16.2408],[80.7993,16.2824],[80.7485,16.33],[80.7256,16.3808],[80.6742,16.4248],[80.6747,16.4427],[80.666,16.4409],[80.6629,16.4499],[80.6705,16.4656],[80.6518,16.4807],[80.6626,16.4889],[80.6895,16.4817],[80.6729,16.4896],[80.6797,16.5012],[80.6621,16.5181],[80.6632,16.5471],[80.682,16.543],[80.6816,16.5165],[80.7297,16.4953],[80.7485,16.4981],[80.757,16.5194],[80.7281,16.5222],[80.6865,16.5426],[80.7019,16.5851],[80.6971,16.6274]]],[[[81.0002,16.6661],[81.0186,16.6504],[81.0088,16.6341],[80.9997,16.6342],[80.9717,16.6667],[80.9743,16.6759],[80.9898,16.6816],[81.0073,16.6724],[81.0002,16.6661]]],[[[80.976,16.7603],[81.0,16.7497],[80.9896,16.7221],[80.9682,16.7249],[80.9493,16.6973],[80.94,16.7087],[80.9315,16.7076],[80.9529,16.7548],[80.976,16.7603]]]]}},{"type":"Feature","properties":{"d":"KURNOOL"},"geometry":{"type":"Polygon","coordinates":[[[77.4273,15.949],[77.5898,15.9132],[77.6129,15.9178],[77.6575,15.8862],[77.6946,15.884],[77.722,15.8962],[77.8036,15.8745],[77.8606,15.885],[77.8783,15.9055],[77.8904,15.9061],[77.9388,15.8834],[77.9754,15.8837],[78.0089,15.8621],[78.0256,15.9027],[78.045,15.9045],[78.0469,15.8752],[78.0716,15.8621],[78.0714,15.8507],[78.0836,15.8412],[78.1341,15.8366],[78.1301,15.851],[78.1356,15.855],[78.1679,15.8553],[78.1747,15.8296],[78.1549,15.814],[78.1615,15.8011],[78.2058,15.7891],[78.164,15.7595],[78.166,15.7534],[78.1904,15.7422],[78.1895,15.7217],[78.2071,15.7129],[78.2106,15.6958],[78.2735,15.7023],[78.2681,15.6407],[78.2299,15.6297],[78.2165,15.6179],[78.2196,15.591],[78.1921,15.5944],[78.1794,15.5605],[78.1897,15.544],[78.1407,15.5311],[78.1377,15.5441],[78.1488,15.5687],[78.1361,15.5799],[78.0825,15.5687],[78.075,15.5306],[78.0511,15.5417],[78.0512,15.4769],[78.0344,15.4727],[78.027,15.4548],[77.9983,15.4566],[77.9969,15.4327],[77.9892,15.4269],[77.9697,15.4343],[77.9646,15.4544],[77.9499,15.454],[77.9508,15.4254],[77.9406,15.4162],[77.9273,15.4355],[77.9071,15.4456],[77.9086,15.4676],[77.8936,15.4672],[77.8745,15.4875],[77.8538,15.4665],[77.845,15.4682],[77.8509,15.4853],[77.82,15.4884],[77.7966,15.4651],[77.8052,15.4536],[77.7799,15.4072],[77.751,15.4206],[77.7361,15.3928],[77.7159,15.3781],[77.68,15.393],[77.6525,15.3373],[77.6764,15.3179],[77.6889,15.3181],[77.679,15.2699],[77.6821,15.2485],[77.6734,15.2374],[77.6803,15.2365],[77.6516,15.2329],[77.6383,15.2226],[77.6353,15.2074],[77.6158,15.2035],[77.6115,15.1838],[77.5823,15.1883],[77.5271,15.2243],[77.4984,15.2203],[77.4833,15.2089],[77.4512,15.2222],[77.4505,15.2055],[77.4342,15.2105],[77.4331,15.2208],[77.4243,15.2238],[77.3904,15.2176],[77.3631,15.2233],[77.3516,15.1779],[77.3176,15.1772],[77.2919,15.1313],[77.2712,15.1311],[77.2649,15.142],[77.2203,15.1484],[77.2,15.1601],[77.188,15.1574],[77.1766,15.1423],[77.1378,15.1435],[77.1408,15.1586],[77.1628,15.1574],[77.1691,15.1719],[77.1548,15.2148],[77.1454,15.2251],[77.1251,15.2269],[77.1263,15.24],[77.1362,15.241],[77.1438,15.2572],[77.1677,15.2585],[77.1669,15.2686],[77.1471,15.2729],[77.1516,15.2924],[77.1184,15.2949],[77.1131,15.3337],[77.0637,15.328],[77.0649,15.3436],[77.0418,15.3619],[77.0472,15.39],[77.0292,15.4044],[77.0335,15.4329],[77.0108,15.4487],[76.9973,15.478],[76.974,15.4982],[76.9745,15.5105],[77.03,15.5026],[77.0304,15.6345],[77.0717,15.6467],[77.0832,15.6591],[77.1214,15.6311],[77.1289,15.6659],[77.0787,15.6951],[77.0874,15.7155],[77.0789,15.7163],[77.0797,15.7275],[77.0491,15.7303],[77.048,15.7562],[77.0543,15.7562],[77.0523,15.7699],[77.0672,15.7877],[77.0655,15.8273],[77.0359,15.8296],[77.0252,15.8375],[77.0326,15.8569],[77.0846,15.9186],[77.1853,15.9567],[77.2355,15.9571],[77.2489,15.9646],[77.2831,15.9542],[77.3612,15.9494],[77.3795,15.9398],[77.4273,15.949]]]}},{"type":"Feature","properties":{"d":"NANDYAL"},"geometry":{"type":"Polygon","coordinates":[[[78.9227,16.1269],[78.9311,16.0929],[78.9108,15.968],[78.8364,15.906],[78.8098,15.8676],[78.7715,15.6648],[78.7767,15.5343],[78.7709,15.4187],[78.7366,15.3262],[78.7371,15.1991],[78.7422,15.182],[78.7583,15.185],[78.7508,15.1083],[78.7623,15.0591],[78.7526,15.0375],[78.7154,15.0013],[78.718,14.9689],[78.6917,14.9683],[78.6845,14.9388],[78.63,14.9259],[78.6304,14.9447],[78.6021,14.9541],[78.5918,14.9393],[78.5838,14.9461],[78.5567,14.9304],[78.5469,14.9331],[78.5515,14.9614],[78.5402,14.9652],[78.5196,14.954],[78.5197,14.9434],[78.4852,14.9008],[78.4773,14.9026],[78.4982,14.9558],[78.5049,14.9549],[78.5166,14.9969],[78.5084,15.0053],[78.5152,15.013],[78.5156,15.0608],[78.487,15.0724],[78.4781,15.0614],[78.4874,15.0503],[78.4848,15.0412],[78.4617,15.0394],[78.4572,15.0311],[78.4193,15.0318],[78.4097,14.973],[78.3872,14.9697],[78.3428,15.0031],[78.3532,15.0313],[78.3696,15.0264],[78.3998,15.0489],[78.378,15.0567],[78.3827,15.0696],[78.371,15.072],[78.3637,15.0523],[78.3254,15.0734],[78.3016,15.074],[78.2876,15.0727],[78.275,15.0583],[78.2837,15.0313],[78.2602,15.0269],[78.2439,14.9995],[78.2358,15.0036],[78.2204,14.9555],[78.165,14.964],[78.1533,14.96],[78.1516,14.9491],[78.1369,14.9481],[78.1339,14.9616],[78.0874,14.9725],[78.0886,14.9826],[78.06,15.0034],[78.0547,14.9924],[78.034,14.9998],[78.0267,15.0167],[78.0106,15.0284],[78.0106,15.0511],[77.9951,15.0643],[78.0142,15.1122],[77.9933,15.1335],[77.9745,15.1392],[77.9613,15.109],[77.9064,15.123],[77.9148,15.1323],[77.9095,15.1399],[77.924,15.1479],[77.9231,15.1645],[77.9171,15.1732],[77.8883,15.1793],[77.8755,15.1355],[77.8428,15.1299],[77.8389,15.1452],[77.8158,15.1432],[77.7918,15.1065],[77.7709,15.1143],[77.7741,15.1246],[77.7477,15.1312],[77.7467,15.1413],[77.7296,15.1534],[77.7304,15.1704],[77.7165,15.1727],[77.7094,15.1846],[77.6931,15.1844],[77.6962,15.2077],[77.6818,15.2146],[77.6746,15.2309],[77.6803,15.2365],[77.6734,15.2374],[77.6821,15.2485],[77.679,15.2699],[77.6889,15.3181],[77.6764,15.3179],[77.6525,15.3373],[77.68,15.393],[77.7159,15.3781],[77.7361,15.3928],[77.751,15.4206],[77.7799,15.4072],[77.8052,15.4536],[77.7966,15.4651],[77.82,15.4884],[77.8509,15.4853],[77.845,15.4682],[77.8538,15.4665],[77.8745,15.4875],[77.8936,15.4672],[77.9086,15.4676],[77.9071,15.4456],[77.9273,15.4355],[77.9406,15.4162],[77.9508,15.4254],[77.9499,15.454],[77.9646,15.4544],[77.9697,15.4343],[77.9892,15.4269],[77.9969,15.4327],[77.9983,15.4566],[78.027,15.4548],[78.0344,15.4727],[78.0512,15.4769],[78.0511,15.5417],[78.075,15.5306],[78.0825,15.5687],[78.1361,15.5799],[78.1488,15.5687],[78.1377,15.5441],[78.1407,15.5311],[78.1897,15.544],[78.1794,15.5605],[78.1921,15.5944],[78.2196,15.591],[78.2165,15.6179],[78.2299,15.6297],[78.2681,15.6407],[78.2735,15.7023],[78.2106,15.6958],[78.2071,15.7129],[78.1895,15.7217],[78.1904,15.7422],[78.164,15.7595],[78.2058,15.7891],[78.1615,15.8011],[78.1549,15.814],[78.1742,15.8258],[78.1679,15.8553],[78.1897,15.8931],[78.1815,15.9068],[78.251,15.9348],[78.2513,15.9754],[78.26,15.9991],[78.2556,16.0132],[78.2625,16.027],[78.2962,16.0131],[78.3163,16.0133],[78.3266,16.0371],[78.3478,16.0478],[78.3655,16.0471],[78.408,16.0751],[78.4791,16.0677],[78.5518,16.0431],[78.587,16.0638],[78.6029,16.0849],[78.6273,16.088],[78.6503,16.0791],[78.6812,16.0351],[78.741,16.009],[78.7924,16.025],[78.8371,16.0707],[78.8427,16.0905],[78.8347,16.1455],[78.8729,16.1436],[78.8896,16.085],[78.918,16.1003],[78.9227,16.1269]]]}},{"type":"Feature","properties":{"d":"NTR"},"geometry":{"type":"Polygon","coordinates":[[[80.7971,17.0618],[80.7793,17.0262],[80.7984,17.0045],[80.8258,16.9937],[80.8245,16.9308],[80.856,16.9141],[80.8472,16.889],[80.8259,16.879],[80.7994,16.8814],[80.7963,16.8596],[80.7711,16.8486],[80.7762,16.8203],[80.7666,16.7877],[80.6895,16.6724],[80.6865,16.639],[80.6971,16.6274],[80.702,16.5858],[80.6865,16.5426],[80.7281,16.5222],[80.757,16.5194],[80.7485,16.4981],[80.7297,16.4953],[80.6816,16.5165],[80.682,16.543],[80.6632,16.5471],[80.6621,16.5181],[80.6797,16.5012],[80.6729,16.4896],[80.6895,16.4817],[80.6626,16.4889],[80.6518,16.4807],[80.5552,16.5331],[80.5545,16.5418],[80.5288,16.5629],[80.4807,16.5863],[80.3674,16.5878],[80.3311,16.6117],[80.2529,16.6109],[80.1825,16.6421],[80.1403,16.6521],[80.1359,16.667],[80.1493,16.6884],[80.1409,16.7071],[80.1468,16.7193],[80.1304,16.7969],[80.1173,16.8199],[80.0733,16.8175],[80.0478,16.834],[80.0468,16.8536],[80.017,16.8545],[80.0012,16.8675],[80.0174,16.9153],[80.0396,16.9174],[80.0504,16.9363],[80.0554,16.9714],[80.0915,16.9684],[80.0952,16.9907],[80.1402,16.9906],[80.1533,17.0069],[80.1678,17.0056],[80.1702,17.0168],[80.1873,17.02],[80.1965,17.044],[80.2041,17.0383],[80.1996,17.0266],[80.2076,17.0128],[80.2229,17.0081],[80.2262,17.0156],[80.2404,17.0024],[80.2649,16.9975],[80.2836,17.0075],[80.2945,16.9953],[80.2903,16.9814],[80.3066,16.9741],[80.305,16.954],[80.3166,16.9486],[80.3116,16.9169],[80.3238,16.9067],[80.3217,16.8796],[80.344,16.8744],[80.3409,16.86],[80.3741,16.8524],[80.3789,16.8191],[80.3844,16.816],[80.4042,16.8323],[80.4078,16.849],[80.3835,16.85],[80.3803,16.8639],[80.4273,16.8499],[80.4285,16.8381],[80.4661,16.8166],[80.4645,16.7954],[80.5044,16.7787],[80.5702,16.768],[80.6078,16.7935],[80.5628,16.8331],[80.5682,16.8696],[80.5956,16.8845],[80.5946,16.8996],[80.5877,16.9026],[80.6021,16.9187],[80.5347,16.9617],[80.5261,16.9479],[80.4985,16.9557],[80.4934,16.9277],[80.4497,16.955],[80.3634,16.9761],[80.3879,17.0093],[80.407,17.0158],[80.3872,17.0716],[80.419,17.0923],[80.4171,17.0737],[80.4386,17.0379],[80.4648,17.0303],[80.4714,17.0506],[80.4909,17.0512],[80.5054,17.0687],[80.5099,17.0877],[80.5039,17.0918],[80.5141,17.1223],[80.5276,17.1192],[80.5639,17.134],[80.58,17.1533],[80.6194,17.128],[80.6453,17.1235],[80.6419,17.116],[80.6706,17.1012],[80.6571,17.0896],[80.6499,17.0716],[80.6559,17.0683],[80.6949,17.0744],[80.6994,17.0838],[80.7971,17.0618]]]}},{"type":"Feature","properties":{"d":"PALNADU"},"geometry":{"type":"Polygon","coordinates":[[[80.4285,16.5891],[80.4285,16.5593],[80.4067,16.5257],[80.4075,16.508],[80.4197,16.5052],[80.4251,16.4776],[80.3811,16.4786],[80.378,16.4652],[80.3674,16.4601],[80.318,16.4631],[80.3012,16.4278],[80.2812,16.4312],[80.2726,16.4143],[80.2412,16.4156],[80.227,16.4006],[80.2197,16.3887],[80.2311,16.3826],[80.2308,16.3651],[80.219,16.3498],[80.2213,16.3421],[80.2042,16.3421],[80.1956,16.3551],[80.1821,16.3574],[80.1759,16.3225],[80.1616,16.3255],[80.1582,16.3022],[80.1267,16.31],[80.1231,16.3006],[80.1291,16.2706],[80.1536,16.2594],[80.1626,16.2698],[80.1794,16.2644],[80.1779,16.2792],[80.1914,16.278],[80.2014,16.2629],[80.2204,16.2581],[80.2185,16.2497],[80.2303,16.2465],[80.2438,16.2739],[80.2772,16.2668],[80.2739,16.2554],[80.311,16.2864],[80.3145,16.3014],[80.3308,16.3155],[80.3402,16.3093],[80.3373,16.3007],[80.3471,16.3146],[80.3521,16.3089],[80.3471,16.2858],[80.3237,16.2511],[80.2891,16.2154],[80.2799,16.2179],[80.2751,16.1999],[80.2597,16.1929],[80.2643,16.188],[80.2756,16.1981],[80.2958,16.1885],[80.293,16.1677],[80.2731,16.1566],[80.278,16.1429],[80.2678,16.1259],[80.2894,16.1031],[80.2847,16.0927],[80.262,16.0973],[80.2311,16.0825],[80.2299,16.0322],[80.1899,16.0383],[80.1878,16.0257],[80.1553,16.0459],[80.1373,16.0458],[80.1332,16.0199],[80.1005,16.0116],[80.0862,16.021],[80.0826,16.0632],[80.0708,16.0789],[80.0741,16.0923],[80.0472,16.0857],[80.0406,16.0926],[80.0519,16.1293],[80.0206,16.1148],[80.0102,16.1193],[80.0006,16.1402],[79.974,16.1464],[79.9723,16.155],[79.9528,16.1646],[79.9534,16.1526],[79.9326,16.1326],[79.8786,16.1551],[79.8682,16.1413],[79.8668,16.1326],[79.8751,16.1291],[79.8685,16.0964],[79.8952,16.0875],[79.8955,16.0772],[79.9158,16.075],[79.9206,16.0628],[79.9174,16.0473],[79.8698,16.0307],[79.8636,15.9957],[79.8904,15.9948],[79.8906,15.9878],[79.9026,15.9836],[79.8992,15.9708],[79.9123,15.9672],[79.9103,15.9602],[79.9032,15.9427],[79.88,15.9405],[79.8696,15.9164],[79.8472,15.9228],[79.8482,15.9284],[79.7912,15.941],[79.7834,15.915],[79.7554,15.8999],[79.7469,15.8595],[79.7542,15.8477],[79.7727,15.8425],[79.7621,15.8239],[79.7126,15.8392],[79.7198,15.8585],[79.7148,15.8674],[79.6885,15.8762],[79.695,15.8945],[79.6638,15.917],[79.6553,15.9209],[79.6358,15.9073],[79.6116,15.9223],[79.6154,15.9328],[79.5898,15.9405],[79.5724,15.9372],[79.5592,15.9482],[79.5726,16.0052],[79.5655,16.0093],[79.5638,16.0326],[79.5473,16.0681],[79.5555,16.1011],[79.5383,16.1342],[79.5372,16.1609],[79.5594,16.1951],[79.5659,16.2753],[79.55,16.2846],[79.5364,16.3061],[79.5005,16.2908],[79.4731,16.2908],[79.4474,16.3029],[79.3711,16.233],[79.3261,16.2286],[79.2963,16.215],[79.2221,16.1632],[79.2157,16.1816],[79.2152,16.2263],[79.2341,16.3249],[79.2338,16.3361],[79.2106,16.3565],[79.2116,16.4477],[79.2332,16.46],[79.2145,16.485],[79.2192,16.5107],[79.2273,16.5241],[79.2448,16.5321],[79.2569,16.5661],[79.2875,16.5612],[79.3372,16.5823],[79.4187,16.5805],[79.4331,16.591],[79.4472,16.62],[79.4789,16.6227],[79.5039,16.6362],[79.5421,16.6325],[79.5756,16.6501],[79.5989,16.6735],[79.6313,16.6607],[79.6792,16.6937],[79.7229,16.6906],[79.7446,16.7194],[79.7728,16.7309],[79.7886,16.7293],[79.8181,16.6919],[79.8521,16.7062],[79.8775,16.6976],[79.8942,16.6495],[79.9078,16.6355],[79.9498,16.6362],[79.9648,16.6452],[79.9958,16.7003],[80.0305,16.7151],[80.055,16.7449],[80.0535,16.7635],[80.0733,16.8175],[80.1009,16.8225],[80.1173,16.8199],[80.1304,16.7969],[80.1468,16.7193],[80.1409,16.7071],[80.1493,16.6884],[80.1359,16.667],[80.1403,16.6521],[80.1825,16.6421],[80.2529,16.6109],[80.3311,16.6117],[80.3674,16.5878],[80.4285,16.5891]]]}},{"type":"Feature","properties":{"d":"PARVATHIPURAM MANYAM"},"geometry":{"type":"MultiPolygon","coordinates":[[[[83.348,19.0171],[83.3675,19.0165],[83.3726,19.0023],[83.3967,19.0097],[83.4144,19.0036],[83.42,18.9981],[83.4153,18.9892],[83.4389,18.9764],[83.4459,18.9578],[83.4618,18.9548],[83.4698,18.9693],[83.4678,18.9911],[83.4553,18.9913],[83.4499,19.0097],[83.4797,19.0085],[83.4833,19.0335],[83.4707,19.0429],[83.4692,19.0611],[83.4623,19.0638],[83.4663,19.0799],[83.4784,19.0793],[83.468,19.0931],[83.4834,19.0923],[83.4808,19.0785],[83.5006,19.0606],[83.5117,19.0703],[83.5193,19.0391],[83.5148,19.0285],[83.4965,19.0355],[83.5009,19.0207],[83.5367,19.0095],[83.5417,19.0415],[83.5576,19.0562],[83.549,19.0805],[83.5602,19.0871],[83.567,19.0717],[83.5634,19.0579],[83.5845,19.0576],[83.5856,19.0866],[83.6106,19.0961],[83.5978,19.1188],[83.6017,19.1355],[83.616,19.1371],[83.6275,19.1506],[83.626,19.1627],[83.6339,19.1595],[83.637,19.1315],[83.655,19.1296],[83.647,19.1184],[83.6628,19.099],[83.6639,19.0761],[83.6853,19.0585],[83.7006,19.025],[83.73,19.022],[83.7095,19.0026],[83.7142,18.993],[83.733,18.9877],[83.7539,18.9251],[83.7632,18.9273],[83.7782,18.9114],[83.7879,18.9159],[83.7696,18.9548],[83.759,18.9506],[83.7449,18.988],[83.7516,18.9987],[83.782,19.0084],[83.7779,19.0175],[83.7947,19.018],[83.7951,19.0037],[83.8089,18.9923],[83.8218,18.9602],[83.8266,18.9163],[83.8458,18.9136],[83.8483,18.8644],[83.8909,18.826],[83.8929,18.8156],[83.8856,18.8111],[83.8781,18.8169],[83.8766,18.8064],[83.8878,18.7965],[83.8325,18.7789],[83.8419,18.7689],[83.8669,18.7662],[83.87,18.7511],[83.881,18.7502],[83.8906,18.7277],[83.8826,18.7406],[83.8673,18.743],[83.8593,18.7297],[83.8377,18.723],[83.8379,18.702],[83.8498,18.6676],[83.892,18.6337],[83.8951,18.5949],[83.9017,18.6003],[83.9054,18.5876],[83.9244,18.5786],[83.9205,18.5669],[83.9032,18.564],[83.9172,18.5421],[83.9053,18.5335],[83.8862,18.5424],[83.8809,18.5553],[83.8609,18.5438],[83.8689,18.5387],[83.8527,18.5342],[83.8244,18.559],[83.829,18.5729],[83.8204,18.5707],[83.8084,18.5772],[83.8101,18.5864],[83.7866,18.5905],[83.7935,18.6073],[83.7782,18.5991],[83.7727,18.5658],[83.7593,18.5692],[83.7496,18.5845],[83.7307,18.5655],[83.7011,18.5714],[83.6852,18.583],[83.6626,18.5828],[83.6358,18.6049],[83.6042,18.6586],[83.5731,18.6755],[83.5717,18.6952],[83.5383,18.7104],[83.5416,18.6854],[83.5536,18.6826],[83.5614,18.667],[83.55,18.6487],[83.556,18.6381],[83.548,18.6252],[83.5492,18.5958],[83.5707,18.5924],[83.5443,18.5833],[83.5382,18.5633],[83.5331,18.5662],[83.5266,18.5523],[83.5384,18.5512],[83.5428,18.5391],[83.5369,18.5274],[83.5155,18.5201],[83.5145,18.5358],[83.4725,18.5694],[83.4859,18.5843],[83.4909,18.6093],[83.4652,18.6182],[83.4573,18.6391],[83.4441,18.6363],[83.4428,18.6172],[83.4279,18.6072],[83.4142,18.6242],[83.3886,18.6077],[83.373,18.6152],[83.3698,18.6049],[83.378,18.5974],[83.3592,18.5928],[83.353,18.6064],[83.3427,18.6097],[83.3394,18.6446],[83.3159,18.6416],[83.2891,18.6195],[83.2862,18.6278],[83.2778,18.626],[83.2434,18.5889],[83.2556,18.5861],[83.2576,18.5723],[83.2663,18.5726],[83.2603,18.5536],[83.2663,18.5416],[83.2572,18.5288],[83.225,18.5184],[83.2129,18.4881],[83.2176,18.4675],[83.21,18.4676],[83.2059,18.4784],[83.1954,18.4728],[83.1901,18.454],[83.2058,18.4398],[83.2097,18.4217],[83.1784,18.3867],[83.1978,18.3847],[83.173,18.373],[83.1511,18.3411],[83.1324,18.35],[83.1119,18.3487],[83.1045,18.3576],[83.0939,18.3531],[83.0915,18.3425],[83.0792,18.3467],[83.075,18.3709],[83.1037,18.4131],[83.0866,18.4122],[83.0778,18.4034],[83.0643,18.4094],[83.0574,18.4194],[83.0673,18.4301],[83.0586,18.4367],[83.0425,18.4242],[83.0409,18.4408],[83.0209,18.4562],[83.0551,18.4856],[83.0552,18.4957],[83.095,18.5466],[83.0809,18.554],[83.0619,18.542],[83.0454,18.5442],[83.0298,18.5735],[83.0401,18.5865],[83.0531,18.5881],[83.0527,18.601],[83.0238,18.5896],[83.0136,18.5944],[83.0152,18.6054],[83.0005,18.608],[82.9996,18.6195],[83.0196,18.6351],[83.0167,18.65],[83.058,18.6653],[83.0728,18.7055],[83.1222,18.7575],[83.1151,18.7681],[83.138,18.7848],[83.1565,18.7682],[83.1779,18.7709],[83.1932,18.7531],[83.2065,18.7514],[83.2125,18.7305],[83.2277,18.7552],[83.2246,18.7751],[83.2714,18.7646],[83.2814,18.7746],[83.2753,18.7829],[83.2843,18.7979],[83.3093,18.8095],[83.3306,18.8063],[83.3282,18.8181],[83.3682,18.8441],[83.3783,18.8307],[83.4059,18.8425],[83.4049,18.8619],[83.4148,18.875],[83.3918,18.8823],[83.3783,18.897],[83.3932,18.9076],[83.3818,18.9139],[83.369,18.9081],[83.3534,18.9306],[83.3525,18.9435],[83.3701,18.9417],[83.3706,18.926],[83.3874,18.9326],[83.3713,18.9427],[83.3671,18.963],[83.3503,18.9656],[83.3502,18.9433],[83.3438,18.9411],[83.3484,18.9263],[83.3352,18.9249],[83.3254,18.9331],[83.3271,18.9446],[83.339,18.9528],[83.3325,18.9577],[83.3348,18.9685],[83.3187,18.9734],[83.3106,18.9987],[83.3388,18.997],[83.3371,19.0064],[83.348,19.0171]]],[[[83.5765,18.5687],[83.6312,18.5596],[83.6307,18.5277],[83.5678,18.5309],[83.5586,18.5377],[83.5579,18.5574],[83.5765,18.5687]]]]}},{"type":"Feature","properties":{"d":"PRAKASAM"},"geometry":{"type":"Polygon","coordinates":[[[79.878,15.925],[79.9079,15.8838],[79.9299,15.8757],[79.9377,15.8572],[79.9499,15.8514],[79.946,15.8319],[79.9182,15.8224],[79.908,15.7633],[79.9212,15.7438],[79.8915,15.714],[79.9005,15.7008],[79.9246,15.6909],[79.9379,15.687],[79.9411,15.6976],[79.969,15.7156],[79.9787,15.7006],[80.0223,15.6849],[80.0345,15.7079],[80.0693,15.6851],[80.0849,15.6868],[80.1227,15.6682],[80.1281,15.682],[80.1121,15.6893],[80.1116,15.7002],[80.1378,15.6908],[80.1406,15.6986],[80.151,15.6982],[80.1656,15.7249],[80.1844,15.7351],[80.1869,15.7572],[80.1975,15.7671],[80.2051,15.7629],[80.2216,15.7796],[80.2247,15.8066],[80.2738,15.779],[80.2571,15.7553],[80.2286,15.7746],[80.1884,15.7096],[80.1921,15.6943],[80.1805,15.6876],[80.1709,15.6496],[80.1801,15.6373],[80.1763,15.6216],[80.2413,15.6117],[80.2277,15.593],[80.2351,15.5906],[80.2269,15.5426],[80.1997,15.497],[80.2102,15.494],[80.208,15.4806],[80.1102,15.3455],[80.0833,15.27],[80.0807,15.241],[80.0896,15.2158],[80.0689,15.2123],[80.0653,15.2022],[80.0397,15.2135],[80.0161,15.213],[80.008,15.196],[79.9768,15.1963],[79.9713,15.2144],[79.9845,15.2705],[79.9528,15.2917],[79.9574,15.3145],[79.9444,15.3148],[79.9352,15.2981],[79.9179,15.297],[79.9099,15.3278],[79.8947,15.2991],[79.8812,15.3138],[79.8645,15.3076],[79.8666,15.2783],[79.8565,15.2743],[79.8378,15.2107],[79.8159,15.2171],[79.8123,15.2067],[79.7719,15.1942],[79.6984,15.2172],[79.688,15.2144],[79.6752,15.226],[79.6751,15.2475],[79.6581,15.2462],[79.6224,15.1738],[79.6224,15.1652],[79.6309,15.1662],[79.6391,15.1766],[79.6496,15.1561],[79.648,15.1498],[79.6245,15.1492],[79.6334,15.0999],[79.6096,15.0594],[79.63,15.035],[79.5634,15.0439],[79.5601,15.0221],[79.5197,15.0373],[79.5019,15.0566],[79.4765,15.0585],[79.466,15.0683],[79.4395,15.0557],[79.417,15.0593],[79.4194,15.0737],[79.368,15.0854],[79.3601,15.1116],[79.3511,15.117],[79.3432,15.0855],[79.3284,15.0909],[79.336,15.0996],[79.3337,15.1152],[79.3141,15.0913],[79.2659,15.0971],[79.266,15.1051],[79.254,15.1073],[79.2147,15.0858],[79.1287,15.1],[79.1302,15.0856],[79.1005,15.084],[79.0892,15.0485],[79.0726,15.1351],[79.0734,15.1654],[79.0832,15.1738],[79.0168,15.1798],[79.0101,15.1679],[78.9722,15.1686],[78.9574,15.1763],[78.9478,15.2287],[78.927,15.2288],[78.9194,15.1873],[78.8714,15.1979],[78.7775,15.2],[78.7422,15.182],[78.7366,15.3262],[78.7709,15.4187],[78.7767,15.5343],[78.7715,15.6648],[78.8098,15.8676],[78.8364,15.906],[78.9108,15.968],[78.9311,16.0929],[78.9231,16.1396],[78.9047,16.1749],[78.9111,16.1887],[78.9603,16.2094],[78.9866,16.2115],[79.0091,16.2403],[79.0292,16.242],[79.0952,16.2243],[79.1238,16.2313],[79.157,16.2096],[79.2152,16.2263],[79.2221,16.1632],[79.2963,16.215],[79.3261,16.2286],[79.3711,16.233],[79.4474,16.3029],[79.4731,16.2908],[79.5005,16.2908],[79.5364,16.3061],[79.55,16.2846],[79.5659,16.2753],[79.5594,16.1951],[79.5372,16.1609],[79.5383,16.1342],[79.5555,16.1011],[79.5473,16.0681],[79.5638,16.0326],[79.5655,16.0093],[79.5726,16.0052],[79.5592,15.9482],[79.5724,15.9372],[79.5898,15.9405],[79.6154,15.9328],[79.6116,15.9223],[79.6358,15.9073],[79.6553,15.9209],[79.6638,15.917],[79.695,15.8945],[79.6885,15.8762],[79.7148,15.8674],[79.7198,15.8585],[79.7126,15.8392],[79.7621,15.8239],[79.7727,15.8425],[79.7542,15.8477],[79.7469,15.8595],[79.7554,15.8999],[79.7834,15.915],[79.7912,15.941],[79.8482,15.9284],[79.8472,15.9228],[79.8696,15.9164],[79.878,15.925]]]}},{"type":"Feature","properties":{"d":"SRI POTTI SRIRAMULU NELLORE"},"geometry":{"type":"Polygon","coordinates":[[[80.0896,15.2158],[80.0842,15.1923],[80.0709,15.1826],[80.0777,15.1776],[80.0487,15.0928],[80.0528,15.0117],[80.0844,14.8832],[80.0998,14.7732],[80.1149,14.7361],[80.1417,14.7043],[80.1712,14.6117],[80.1955,14.5858],[80.1795,14.5088],[80.1686,14.3549],[80.1378,14.2581],[80.1207,14.252],[80.1021,14.2563],[80.1054,14.2385],[80.0722,14.2259],[80.0683,14.2134],[80.0478,14.2086],[80.0474,14.1992],[80.0294,14.2034],[80.0335,14.1951],[80.0248,14.185],[80.0184,14.1975],[79.9882,14.1834],[79.9865,14.1936],[79.976,14.1859],[79.9669,14.1606],[79.9537,14.1533],[79.9417,14.1616],[79.9374,14.1442],[79.8559,14.1766],[79.8482,14.2098],[79.8179,14.2263],[79.817,14.2571],[79.8002,14.2662],[79.7744,14.2244],[79.7956,14.2103],[79.8004,14.1836],[79.7782,14.1842],[79.7635,14.1751],[79.7452,14.1564],[79.7346,14.1273],[79.7078,14.1094],[79.6682,14.1211],[79.6653,14.1505],[79.6564,14.1543],[79.6404,14.1529],[79.6412,14.1133],[79.6305,14.1067],[79.5994,14.1201],[79.5997,14.1319],[79.5884,14.1419],[79.5289,14.1723],[79.4281,14.1851],[79.4224,14.2068],[79.4353,14.2434],[79.4197,14.2654],[79.4224,14.2787],[79.3895,14.341],[79.367,14.3507],[79.3643,14.3788],[79.33,14.4261],[79.3165,14.4769],[79.293,14.485],[79.2782,14.5329],[79.2486,14.5708],[79.2418,14.5934],[79.2295,14.6027],[79.2197,14.5883],[79.2005,14.6139],[79.1889,14.6166],[79.1816,14.6439],[79.1871,14.6574],[79.174,14.6826],[79.1839,14.6889],[79.1863,14.7109],[79.1511,14.7929],[79.1357,14.8622],[79.1015,14.9055],[79.0814,14.983],[79.0859,15.0353],[79.1005,15.084],[79.1302,15.0856],[79.1287,15.1],[79.1371,15.1014],[79.1651,15.0902],[79.2147,15.0858],[79.254,15.1073],[79.266,15.1051],[79.2659,15.0971],[79.3141,15.0913],[79.3337,15.1152],[79.336,15.0996],[79.3284,15.0909],[79.3432,15.0855],[79.3511,15.117],[79.3601,15.1116],[79.368,15.0854],[79.4194,15.0737],[79.417,15.0593],[79.4235,15.0569],[79.4395,15.0557],[79.466,15.0683],[79.4765,15.0585],[79.5019,15.0566],[79.5197,15.0373],[79.5506,15.0226],[79.5601,15.0221],[79.5634,15.0439],[79.63,15.035],[79.6096,15.0594],[79.6334,15.0999],[79.6245,15.1492],[79.648,15.1498],[79.6496,15.1561],[79.6391,15.1766],[79.6309,15.1662],[79.6224,15.1652],[79.6224,15.1738],[79.6534,15.2436],[79.6751,15.2475],[79.6752,15.226],[79.688,15.2144],[79.6984,15.2172],[79.7719,15.1942],[79.8123,15.2067],[79.8159,15.2171],[79.8378,15.2107],[79.8565,15.2743],[79.8666,15.2783],[79.8645,15.3076],[79.8812,15.3138],[79.8947,15.2991],[79.9099,15.3278],[79.9179,15.297],[79.9352,15.2981],[79.9444,15.3148],[79.9574,15.3145],[79.9528,15.2917],[79.9845,15.2705],[79.9713,15.2144],[79.9768,15.1963],[80.008,15.196],[80.0161,15.213],[80.0397,15.2135],[80.0653,15.2022],[80.0689,15.2123],[80.0896,15.2158]]]}},{"type":"Feature","properties":{"d":"SRI SATHYA SAI"},"geometry":{"type":"Polygon","coordinates":[[[77.986,14.5677],[77.9671,14.587],[77.9441,14.5708],[77.977,14.5381],[77.9726,14.5325],[78.0006,14.489],[78.0851,14.4218],[78.1067,14.3932],[78.1893,14.3494],[78.2289,14.3157],[78.2533,14.305],[78.2773,14.305],[78.285,14.2921],[78.3574,14.2929],[78.3947,14.2773],[78.4207,14.2831],[78.4059,14.2014],[78.4283,14.1982],[78.43,14.1825],[78.4203,14.1705],[78.425,14.141],[78.4435,14.1381],[78.4613,14.1068],[78.4544,14.0846],[78.4425,14.0808],[78.4488,14.0525],[78.4399,14.0434],[78.4404,14.0189],[78.4693,14.0074],[78.4668,13.9955],[78.4605,13.9874],[78.4271,13.9792],[78.4204,13.9636],[78.3866,13.9389],[78.3724,13.9448],[78.3705,13.9567],[78.3469,13.9352],[78.3373,13.9371],[78.3313,13.918],[78.3182,13.9208],[78.2981,13.9052],[78.2955,13.8925],[78.2728,13.8953],[78.2782,13.8895],[78.265,13.8576],[78.2408,13.8451],[78.2566,13.8344],[78.2615,13.7914],[78.237,13.7788],[78.1876,13.7882],[78.1289,13.7859],[78.1149,13.8076],[78.1255,13.832],[78.1148,13.8629],[78.0829,13.8625],[78.079,13.8812],[78.0489,13.8961],[78.0462,13.8621],[78.0005,13.8729],[77.9921,13.8688],[77.9764,13.8298],[77.9559,13.8309],[77.9491,13.8864],[77.9865,13.9026],[77.9803,13.9275],[77.9875,13.9555],[77.9674,13.9602],[77.96,13.9405],[77.9462,13.9353],[77.9268,13.9053],[77.8958,13.9204],[77.8957,13.941],[77.8416,13.9359],[77.8266,13.9447],[77.8144,13.9308],[77.8135,13.9146],[77.8162,13.903],[77.8311,13.8971],[77.8355,13.881],[77.8275,13.8743],[77.8371,13.8697],[77.8222,13.8647],[77.812,13.849],[77.7822,13.8439],[77.7888,13.8232],[77.7193,13.8003],[77.7222,13.7686],[77.7151,13.7438],[77.7085,13.741],[77.7033,13.7698],[77.6749,13.7605],[77.6801,13.7868],[77.6513,13.7841],[77.6211,13.7684],[77.6188,13.755],[77.6422,13.7468],[77.6308,13.7361],[77.6136,13.7519],[77.596,13.7482],[77.5868,13.7335],[77.5717,13.7382],[77.5591,13.7232],[77.548,13.7523],[77.5254,13.7532],[77.522,13.7446],[77.5366,13.7306],[77.5283,13.693],[77.5124,13.6972],[77.5142,13.7132],[77.485,13.7148],[77.4921,13.6898],[77.4554,13.6826],[77.4502,13.7088],[77.4651,13.7109],[77.4698,13.7568],[77.4566,13.7895],[77.4646,13.8062],[77.4471,13.8109],[77.437,13.7967],[77.424,13.7985],[77.4253,13.8082],[77.4162,13.8077],[77.4315,13.8436],[77.3819,13.8394],[77.3812,13.8473],[77.363,13.8542],[77.3382,13.8341],[77.3254,13.8332],[77.3165,13.8633],[77.2949,13.8574],[77.2883,13.8475],[77.2567,13.8465],[77.2591,13.8631],[77.2466,13.8683],[77.2483,13.9012],[77.2346,13.904],[77.2202,13.8697],[77.2107,13.8853],[77.2004,13.863],[77.1819,13.8706],[77.1908,13.9119],[77.1847,13.9252],[77.1699,13.9206],[77.1619,13.9064],[77.1686,13.8645],[77.1476,13.8685],[77.1282,13.8565],[77.1322,13.8462],[77.156,13.8444],[77.1543,13.834],[77.1684,13.83],[77.1575,13.806],[77.1785,13.7827],[77.1731,13.762],[77.1511,13.7662],[77.1356,13.7585],[77.0911,13.767],[77.0854,13.7424],[77.0647,13.7439],[77.0407,13.7783],[77.0245,13.7792],[77.0165,13.7385],[76.9989,13.7454],[76.9854,13.7902],[76.9914,13.8059],[76.9764,13.8173],[76.9779,13.8265],[76.9922,13.8487],[77.014,13.8602],[77.023,13.9026],[77.0446,13.9057],[77.0416,13.9326],[76.9938,13.9626],[76.9995,13.9903],[76.9488,14.0168],[76.9432,14.0299],[76.932,14.0304],[76.9326,14.0521],[76.9726,14.0602],[76.975,14.0809],[76.9484,14.0921],[76.9534,14.0992],[76.9443,14.1207],[76.925,14.1371],[76.9128,14.1288],[76.8859,14.1382],[76.8945,14.1678],[76.9197,14.1645],[76.9424,14.1733],[76.9476,14.1982],[76.9606,14.1818],[77.0055,14.184],[77.0224,14.1772],[77.0201,14.1309],[77.0261,14.125],[77.0147,14.1],[77.0297,14.0884],[77.0255,14.0659],[77.0315,14.0565],[77.0761,14.0533],[77.0753,14.0435],[77.127,14.0471],[77.1411,14.0039],[77.1728,14.0011],[77.1733,14.0128],[77.2454,14.0119],[77.2697,14.0342],[77.2788,14.0324],[77.279,14.0121],[77.3046,14.0306],[77.3221,14.0296],[77.3362,13.9954],[77.3611,13.9908],[77.3495,13.9581],[77.3696,13.9515],[77.3478,13.916],[77.3544,13.9041],[77.3979,13.9062],[77.4038,13.8889],[77.435,13.915],[77.4164,13.9239],[77.4121,13.9456],[77.4354,13.9475],[77.4379,13.9749],[77.4259,13.9861],[77.3816,13.9762],[77.3897,14.0143],[77.3323,14.0307],[77.3404,14.0598],[77.3605,14.0626],[77.4004,14.1164],[77.3906,14.1266],[77.3477,14.1055],[77.3517,14.1311],[77.3789,14.1358],[77.3937,14.1742],[77.4666,14.1716],[77.4675,14.1653],[77.5046,14.1587],[77.5171,14.1844],[77.5048,14.1937],[77.4928,14.231],[77.5028,14.2572],[77.4993,14.2747],[77.4818,14.2916],[77.4596,14.2805],[77.4481,14.2826],[77.4462,14.3175],[77.4315,14.3129],[77.4287,14.3279],[77.4078,14.3376],[77.3891,14.3331],[77.3782,14.3184],[77.3872,14.2712],[77.4088,14.2599],[77.4187,14.2154],[77.4141,14.2048],[77.3907,14.1993],[77.3821,14.2233],[77.3598,14.234],[77.3638,14.2758],[77.3561,14.2794],[77.3557,14.2956],[77.3198,14.3116],[77.3172,14.3351],[77.3293,14.34],[77.3318,14.3533],[77.3173,14.3774],[77.3238,14.434],[77.3327,14.4522],[77.3631,14.4618],[77.3588,14.4835],[77.3771,14.4979],[77.356,14.5388],[77.3902,14.5538],[77.4075,14.5495],[77.4692,14.5675],[77.4768,14.5436],[77.4719,14.515],[77.4862,14.4752],[77.5177,14.4888],[77.5316,14.4846],[77.5314,14.4752],[77.5466,14.4597],[77.5709,14.4622],[77.5808,14.4545],[77.6094,14.46],[77.6161,14.4779],[77.6357,14.4895],[77.6517,14.4836],[77.6686,14.4891],[77.6771,14.5055],[77.6497,14.5182],[77.6544,14.5359],[77.6934,14.5372],[77.7029,14.5442],[77.7116,14.5729],[77.7206,14.5796],[77.736,14.5764],[77.7393,14.5922],[77.7734,14.5951],[77.8044,14.6156],[77.8175,14.6007],[77.852,14.6],[77.8523,14.6402],[77.8699,14.654],[77.8787,14.6434],[77.8937,14.6481],[77.983,14.621],[77.9905,14.6123],[77.982,14.5957],[77.986,14.5677]]]}},{"type":"Feature","properties":{"d":"SRIKAKULAM"},"geometry":{"type":"Polygon","coordinates":[[[84.4277,18.9321],[84.4311,18.9692],[84.4524,18.976],[84.4322,18.9951],[84.4211,19.022],[84.4416,19.0035],[84.4789,18.9885],[84.4826,19.0166],[84.4944,19.029],[84.5164,19.0484],[84.5566,19.0566],[84.5729,19.0737],[84.5747,19.0676],[84.583,19.0732],[84.5773,19.0405],[84.5833,19.0425],[84.5817,19.0301],[84.5941,19.0223],[84.6134,19.0566],[84.6207,19.0561],[84.6183,19.0659],[84.6611,19.063],[84.6631,19.0746],[84.6709,19.0763],[84.659,19.0944],[84.647,19.0963],[84.6312,19.0821],[84.6255,19.0849],[84.6255,19.0991],[84.6095,19.1008],[84.5955,19.1324],[84.6673,19.1299],[84.6709,19.166],[84.712,19.1583],[84.7105,19.1465],[84.7,19.1444],[84.7061,19.141],[84.6978,19.1264],[84.7028,19.1179],[84.7615,19.0791],[84.6869,18.9709],[84.6764,18.9677],[84.6845,18.9675],[84.5871,18.8674],[84.5578,18.8178],[84.5515,18.7905],[84.4697,18.7144],[84.4399,18.6595],[84.3667,18.5909],[84.3547,18.5549],[84.215,18.4413],[84.1507,18.3773],[84.1269,18.3439],[84.1269,18.3134],[84.0788,18.2877],[84.071,18.2766],[83.9359,18.209],[83.8882,18.1955],[83.8604,18.1743],[83.8099,18.156],[83.795,18.1684],[83.8053,18.154],[83.6635,18.0779],[83.6448,18.1063],[83.6236,18.1127],[83.624,18.1293],[83.6074,18.1433],[83.6024,18.1604],[83.6117,18.1653],[83.614,18.1792],[83.61,18.1927],[83.6031,18.1933],[83.6088,18.2029],[83.6036,18.2067],[83.636,18.2197],[83.6527,18.2072],[83.6674,18.233],[83.6743,18.2828],[83.71,18.2957],[83.6571,18.3225],[83.6279,18.3219],[83.6244,18.3336],[83.6061,18.3283],[83.6115,18.3362],[83.5857,18.3544],[83.5898,18.365],[83.6003,18.3672],[83.5957,18.3721],[83.6032,18.375],[83.6062,18.391],[83.6363,18.3788],[83.6556,18.3884],[83.7047,18.3867],[83.7008,18.4414],[83.7167,18.4487],[83.7251,18.4365],[83.7158,18.4263],[83.7314,18.4314],[83.739,18.408],[83.7631,18.3919],[83.769,18.3761],[83.8005,18.3714],[83.7982,18.3924],[83.8069,18.3975],[83.8325,18.3874],[83.8239,18.4003],[83.835,18.4208],[83.8105,18.4376],[83.8185,18.4736],[83.7877,18.5116],[83.8027,18.5461],[83.7835,18.5421],[83.7727,18.5658],[83.7782,18.5991],[83.7935,18.6073],[83.7866,18.5905],[83.8101,18.5864],[83.8084,18.5772],[83.8204,18.5707],[83.829,18.5729],[83.8244,18.559],[83.8527,18.5342],[83.8689,18.5387],[83.8609,18.5438],[83.8809,18.5553],[83.8862,18.5424],[83.9053,18.5335],[83.9172,18.5421],[83.9032,18.564],[83.9205,18.5669],[83.9244,18.5786],[83.9054,18.5876],[83.9017,18.6003],[83.8953,18.5946],[83.8917,18.6344],[83.8685,18.6478],[83.8402,18.6828],[83.8377,18.723],[83.8593,18.7297],[83.8696,18.7439],[83.8907,18.729],[83.881,18.7502],[83.87,18.7511],[83.8669,18.7662],[83.8419,18.7689],[83.8325,18.7789],[83.8878,18.7965],[83.8768,18.8057],[83.8777,18.8165],[83.8856,18.8111],[83.9158,18.828],[83.9502,18.8052],[83.9656,18.8147],[84.0157,18.8088],[84.0155,18.8171],[84.0408,18.8156],[84.0467,18.8016],[84.0599,18.7992],[84.0599,18.7824],[84.068,18.7823],[84.0764,18.7644],[84.0896,18.764],[84.0895,18.7568],[84.1224,18.7679],[84.1374,18.7612],[84.1404,18.7773],[84.1593,18.7879],[84.1899,18.7777],[84.1953,18.7917],[84.2181,18.7901],[84.2144,18.7954],[84.2263,18.7988],[84.261,18.7832],[84.2865,18.7923],[84.2887,18.8047],[84.3213,18.7865],[84.3266,18.7988],[84.3445,18.8018],[84.3311,18.8178],[84.3494,18.8201],[84.3521,18.8315],[84.3638,18.8371],[84.3331,18.8605],[84.3261,18.8772],[84.3368,18.8902],[84.3621,18.8609],[84.3742,18.8614],[84.3842,18.8741],[84.3726,18.8781],[84.3603,18.8946],[84.3921,18.8763],[84.3975,18.8903],[84.3851,18.8959],[84.3789,18.9042],[84.3935,18.9043],[84.4001,18.8953],[84.4195,18.8979],[84.4186,18.9173],[84.4284,18.909],[84.4395,18.9271],[84.4277,18.9321]]]}},{"type":"Feature","properties":{"d":"TIRUPATI"},"geometry":{"type":"Polygon","coordinates":[[[80.1378,14.2581],[80.1264,14.1643],[80.1357,14.0866],[80.1498,14.0318],[80.2209,13.875],[80.2537,13.7809],[80.2375,13.7239],[80.2342,13.6535],[80.2426,13.6164],[80.2685,13.5645],[80.2418,13.4706],[80.2146,13.4903],[80.1451,13.4914],[80.1392,13.5043],[80.1128,13.5059],[80.1082,13.4889],[80.0782,13.4888],[80.0771,13.5268],[80.0886,13.5354],[80.0813,13.5498],[80.0569,13.5366],[80.0284,13.5388],[80.0169,13.5472],[79.9986,13.5427],[80.0005,13.5257],[80.0177,13.5296],[80.0272,13.5137],[80.0355,13.5183],[80.0484,13.5123],[80.0466,13.4937],[80.0159,13.498],[80.0075,13.4786],[79.9841,13.4796],[79.9824,13.4705],[79.9724,13.4691],[79.9733,13.4297],[79.9567,13.4222],[79.9396,13.425],[79.9418,13.4167],[79.9346,13.4165],[79.9457,13.4077],[79.9444,13.3969],[79.9626,13.3942],[79.958,13.3792],[79.945,13.3818],[79.9456,13.3637],[79.9313,13.3515],[79.916,13.3599],[79.9149,13.3481],[79.8835,13.3329],[79.8829,13.3233],[79.8681,13.3311],[79.8628,13.3169],[79.8089,13.3173],[79.7917,13.2935],[79.7561,13.3208],[79.7479,13.345],[79.7344,13.3449],[79.732,13.3762],[79.709,13.4135],[79.7158,13.4218],[79.7126,13.4397],[79.6943,13.4442],[79.6882,13.4352],[79.6916,13.4027],[79.671,13.4079],[79.6693,13.3982],[79.6603,13.4003],[79.6659,13.3668],[79.6492,13.3613],[79.6483,13.3533],[79.5785,13.3667],[79.5373,13.3386],[79.511,13.3418],[79.5088,13.3593],[79.5198,13.3726],[79.5357,13.3771],[79.5421,13.3931],[79.5302,13.4036],[79.4986,13.3836],[79.4794,13.3857],[79.4863,13.4002],[79.4788,13.412],[79.4837,13.4199],[79.4988,13.4212],[79.4996,13.4422],[79.5314,13.4487],[79.5242,13.4618],[79.5007,13.4643],[79.4858,13.4551],[79.4784,13.4608],[79.4749,13.4736],[79.4986,13.4708],[79.5018,13.4845],[79.518,13.4913],[79.5013,13.4997],[79.491,13.4953],[79.4905,13.5106],[79.4589,13.5073],[79.4196,13.4865],[79.393,13.4922],[79.3523,13.4665],[79.3288,13.4674],[79.3429,13.4874],[79.3346,13.4904],[79.2699,13.4755],[79.2395,13.441],[79.227,13.4483],[79.2166,13.4369],[79.2395,13.4369],[79.2417,13.4265],[79.2583,13.4232],[79.2214,13.4172],[79.2111,13.4275],[79.2043,13.417],[79.2276,13.4109],[79.2263,13.4018],[79.1985,13.4085],[79.168,13.3993],[79.157,13.4008],[79.1535,13.414],[79.1416,13.4101],[79.1431,13.421],[79.1275,13.4172],[79.0906,13.4256],[79.0908,13.441],[79.0698,13.4506],[79.0531,13.4422],[79.0475,13.4604],[79.0329,13.4725],[78.997,13.4931],[78.9805,13.4915],[78.9833,13.5104],[79.009,13.5325],[79.0437,13.54],[79.0402,13.5553],[79.0748,13.5413],[79.0835,13.5302],[79.0778,13.5268],[79.0822,13.5142],[79.1441,13.5221],[79.1798,13.5465],[79.1695,13.5656],[79.177,13.5928],[79.172,13.6031],[79.0525,13.6131],[79.0539,13.6475],[79.0766,13.6693],[79.0747,13.6859],[79.0927,13.7248],[79.0817,13.7398],[79.0887,13.782],[79.0231,13.7727],[79.0213,13.8027],[79.0424,13.8053],[79.042,13.8142],[79.0161,13.8254],[79.0116,13.8445],[79.0252,13.8494],[79.0233,13.8582],[79.0454,13.8618],[79.0372,13.8742],[79.0208,13.8791],[79.0227,13.8923],[79.0101,13.8956],[79.0073,13.9065],[79.0236,13.8919],[79.0907,13.881],[79.0996,13.8507],[79.1266,13.8504],[79.1483,13.8654],[79.2112,13.8158],[79.2105,13.8072],[79.1951,13.8034],[79.1907,13.7935],[79.2275,13.756],[79.2422,13.7517],[79.2416,13.761],[79.293,13.7597],[79.3058,13.7241],[79.3744,13.7563],[79.4172,13.7647],[79.4201,13.7852],[79.4552,13.7857],[79.4685,13.799],[79.4564,13.8033],[79.4533,13.8292],[79.4344,13.8652],[79.4589,13.9468],[79.4499,13.9716],[79.455,13.9879],[79.4428,13.9982],[79.4368,14.0241],[79.4542,14.1012],[79.4281,14.1851],[79.5289,14.1723],[79.5884,14.1419],[79.5997,14.1319],[79.5994,14.1201],[79.6305,14.1067],[79.6412,14.1133],[79.6404,14.1529],[79.6564,14.1543],[79.6653,14.1505],[79.6682,14.1211],[79.7078,14.1094],[79.7346,14.1273],[79.7452,14.1564],[79.7635,14.1751],[79.7782,14.1842],[79.8004,14.1836],[79.7956,14.2103],[79.7744,14.2244],[79.8002,14.2662],[79.817,14.2571],[79.8179,14.2263],[79.8482,14.2098],[79.8559,14.1766],[79.9374,14.1442],[79.9417,14.1616],[79.9537,14.1533],[79.9669,14.1606],[79.976,14.1859],[79.9865,14.1936],[79.9882,14.1834],[80.0184,14.1975],[80.0248,14.185],[80.0335,14.1951],[80.0294,14.2034],[80.0474,14.1992],[80.0478,14.2086],[80.0683,14.2134],[80.0722,14.2259],[80.1054,14.2385],[80.1021,14.2563],[80.1207,14.252],[80.1378,14.2581]]]}},{"type":"Feature","properties":{"d":"VISAKHAPATNAM"},"geometry":{"type":"Polygon","coordinates":[[[83.5107,17.9551],[83.525,17.9473],[83.4693,17.9112],[83.4437,17.8728],[83.4176,17.8536],[83.407,17.8407],[83.4162,17.8337],[83.4106,17.809],[83.3908,17.7926],[83.386,17.7779],[83.3541,17.7557],[83.3434,17.7232],[83.2998,17.6964],[83.2821,17.6608],[83.2372,17.6295],[83.2317,17.6193],[83.2383,17.6124],[83.2123,17.5907],[83.174,17.5751],[83.1628,17.561],[83.1126,17.5462],[83.1284,17.6117],[83.1513,17.6485],[83.1441,17.6561],[83.1536,17.6735],[83.1416,17.6733],[83.1372,17.6858],[83.1153,17.6824],[83.1098,17.6925],[83.1196,17.6953],[83.1219,17.7138],[83.1498,17.7189],[83.1567,17.7368],[83.1636,17.7582],[83.1567,17.7686],[83.1634,17.7768],[83.1639,17.8487],[83.1852,17.846],[83.189,17.8531],[83.2053,17.8476],[83.2139,17.8619],[83.2056,17.863],[83.2111,17.8821],[83.2285,17.8739],[83.2389,17.9043],[83.2608,17.9158],[83.2466,17.9287],[83.236,17.9248],[83.2242,17.9462],[83.2428,17.9509],[83.2732,18.0074],[83.2931,17.9968],[83.2888,18.0085],[83.3151,18.0056],[83.3051,18.031],[83.3177,18.0261],[83.3339,18.046],[83.3531,18.0489],[83.3579,18.0647],[83.3765,18.0516],[83.4037,18.0577],[83.3927,18.0174],[83.4211,18.0139],[83.4241,17.9939],[83.4064,17.9638],[83.4218,17.9414],[83.4431,17.9226],[83.4508,17.9252],[83.4373,17.9472],[83.4507,17.9452],[83.4515,17.9603],[83.4734,17.9646],[83.4826,17.9488],[83.5107,17.9551]]]}},{"type":"Feature","properties":{"d":"VIZIANAGARAM"},"geometry":{"type":"MultiPolygon","coordinates":[[[[83.1484,18.3274],[83.173,18.373],[83.1983,18.3855],[83.1784,18.3867],[83.2097,18.4217],[83.1907,18.459],[83.1989,18.4763],[83.2176,18.4675],[83.2129,18.4881],[83.225,18.5184],[83.2572,18.5288],[83.2663,18.5416],[83.2603,18.5536],[83.2663,18.5726],[83.2576,18.5723],[83.2556,18.5861],[83.2434,18.5889],[83.2778,18.626],[83.2862,18.6278],[83.2891,18.6195],[83.3159,18.6416],[83.3394,18.6446],[83.3427,18.6097],[83.353,18.6064],[83.3592,18.5928],[83.378,18.5974],[83.3698,18.6049],[83.373,18.6152],[83.3886,18.6077],[83.4142,18.6242],[83.4279,18.6072],[83.4428,18.6172],[83.4441,18.6363],[83.4573,18.6391],[83.4652,18.6182],[83.4909,18.6093],[83.4859,18.5843],[83.4725,18.5694],[83.5145,18.5358],[83.5155,18.5201],[83.5369,18.5274],[83.5428,18.5391],[83.5384,18.5512],[83.5266,18.5523],[83.5331,18.5662],[83.5382,18.5633],[83.5443,18.5833],[83.5707,18.5924],[83.5492,18.5958],[83.548,18.6252],[83.556,18.6381],[83.55,18.6487],[83.5614,18.667],[83.5536,18.6826],[83.5416,18.6854],[83.5383,18.7104],[83.5717,18.6952],[83.5731,18.6755],[83.6042,18.6586],[83.6041,18.6489],[83.62,18.6398],[83.65,18.589],[83.7307,18.5655],[83.7496,18.5845],[83.7593,18.5692],[83.777,18.5628],[83.7835,18.5421],[83.8013,18.5481],[83.7884,18.5085],[83.8199,18.4695],[83.8108,18.4368],[83.8362,18.4173],[83.824,18.4018],[83.8325,18.3874],[83.8069,18.3975],[83.7982,18.3924],[83.8005,18.3714],[83.769,18.3761],[83.7631,18.3919],[83.739,18.408],[83.7314,18.4314],[83.7158,18.4263],[83.7251,18.4365],[83.7156,18.4487],[83.7008,18.4414],[83.7047,18.3867],[83.6556,18.3884],[83.6363,18.3788],[83.6062,18.391],[83.6032,18.375],[83.5957,18.3721],[83.6003,18.3672],[83.5898,18.365],[83.5857,18.3544],[83.6115,18.3362],[83.6061,18.3283],[83.6244,18.3336],[83.6279,18.3219],[83.6571,18.3225],[83.71,18.2957],[83.6743,18.2828],[83.6674,18.233],[83.6527,18.2072],[83.636,18.2197],[83.6035,18.2062],[83.6088,18.2029],[83.6032,18.193],[83.614,18.1843],[83.6117,18.1653],[83.6027,18.1645],[83.6074,18.1433],[83.624,18.1293],[83.6236,18.1127],[83.6448,18.1063],[83.6658,18.0815],[83.5694,18.0118],[83.5583,17.9824],[83.5316,17.951],[83.5107,17.9551],[83.4826,17.9488],[83.4658,17.9658],[83.4515,17.9603],[83.4507,17.9452],[83.4373,17.9472],[83.4508,17.9252],[83.4431,17.9226],[83.4064,17.9634],[83.4242,17.9951],[83.4211,18.0139],[83.3927,18.0174],[83.4037,18.0577],[83.3765,18.0516],[83.3579,18.0647],[83.3531,18.0489],[83.3339,18.046],[83.3177,18.0261],[83.3051,18.031],[83.3151,18.0056],[83.2888,18.0085],[83.2931,17.9968],[83.2732,18.0074],[83.2428,17.9509],[83.2242,17.9462],[83.236,17.9248],[83.2466,17.9287],[83.2608,17.9158],[83.2389,17.9043],[83.2308,17.8759],[83.2111,17.8821],[83.2056,17.863],[83.2139,17.8619],[83.2053,17.8476],[83.1859,17.8531],[83.1852,17.846],[83.1642,17.8492],[83.1611,17.8406],[83.1455,17.8454],[83.1444,17.8716],[83.1271,17.8773],[83.1251,17.9078],[83.1076,17.9234],[83.1105,17.9395],[83.0695,17.9445],[83.0523,17.9641],[83.0063,17.9773],[83.0056,17.9886],[83.0142,18.0511],[83.0257,18.061],[83.0508,18.0637],[83.0466,18.0722],[83.0686,18.0734],[83.0743,18.0857],[83.1285,18.1011],[83.1252,18.1102],[83.1046,18.1099],[83.1224,18.1154],[83.102,18.1346],[83.1183,18.1545],[83.1073,18.1585],[83.1181,18.1701],[83.1043,18.1889],[83.1326,18.176],[83.1528,18.1908],[83.1436,18.2],[83.1578,18.2003],[83.1562,18.2091],[83.1679,18.2111],[83.1742,18.2288],[83.1839,18.2234],[83.1893,18.1983],[83.2087,18.1893],[83.2252,18.1942],[83.2151,18.2013],[83.219,18.2247],[83.2285,18.2053],[83.2415,18.2026],[83.2324,18.2375],[83.2669,18.2166],[83.2588,18.2767],[83.2295,18.2885],[83.2252,18.2817],[83.2104,18.2863],[83.2187,18.3341],[83.1905,18.3299],[83.1679,18.3136],[83.1614,18.3287],[83.1484,18.3274]]],[[[83.0766,18.1676],[83.0953,18.1735],[83.0961,18.1659],[83.0821,18.1598],[83.0766,18.1676]]],[[[83.0664,18.1527],[83.0513,18.1468],[83.0637,18.1637],[83.0664,18.1527]]]]}},{"type":"Feature","properties":{"d":"WEST GODAVARI"},"geometry":{"type":"Polygon","coordinates":[[[81.8015,16.6946],[81.8419,16.6473],[81.8571,16.611],[81.8448,16.5292],[81.8484,16.5018],[81.7997,16.4776],[81.7549,16.4232],[81.7364,16.4223],[81.7241,16.4459],[81.7102,16.4432],[81.6975,16.4137],[81.717,16.3588],[81.7109,16.3167],[81.6906,16.3275],[81.5525,16.3471],[81.5467,16.3783],[81.5227,16.381],[81.5127,16.3703],[81.4948,16.3702],[81.4699,16.3985],[81.4527,16.4051],[81.4377,16.3985],[81.4258,16.4193],[81.412,16.4205],[81.3998,16.4306],[81.4014,16.4384],[81.3786,16.4525],[81.3784,16.4681],[81.369,16.4754],[81.3707,16.4997],[81.3325,16.511],[81.3436,16.531],[81.3466,16.5922],[81.3572,16.5999],[81.3545,16.6106],[81.3433,16.6079],[81.3276,16.6196],[81.3337,16.6706],[81.3289,16.6892],[81.3533,16.6926],[81.3532,16.6789],[81.3401,16.6743],[81.3432,16.6579],[81.3785,16.6666],[81.4326,16.6616],[81.4583,16.6767],[81.4428,16.6884],[81.4412,16.6966],[81.4575,16.6998],[81.4582,16.7104],[81.4432,16.7345],[81.4408,16.7569],[81.4658,16.7544],[81.4775,16.7607],[81.4724,16.7796],[81.4974,16.8131],[81.4867,16.8187],[81.4751,16.8649],[81.4572,16.8703],[81.4604,16.8991],[81.4718,16.8976],[81.4867,16.9127],[81.49,16.9722],[81.5183,16.9472],[81.5292,16.9424],[81.5394,16.9481],[81.553,16.9187],[81.574,16.9012],[81.6069,16.9045],[81.6238,16.8916],[81.6366,16.8539],[81.6563,16.8513],[81.625,16.7954],[81.6803,16.7613],[81.6821,16.7674],[81.6876,16.7611],[81.6899,16.7666],[81.7213,16.7644],[81.7257,16.7718],[81.7204,16.7288],[81.7528,16.7277],[81.7494,16.7049],[81.7598,16.6922],[81.7587,16.6741],[81.789,16.6848],[81.7886,16.6947],[81.8015,16.6946]]]}},{"type":"Feature","properties":{"d":"YSR KADAPA"},"geometry":{"type":"Polygon","coordinates":[[[79.0892,15.0485],[79.0835,14.9732],[79.1042,14.8987],[79.1357,14.8622],[79.1511,14.7929],[79.1863,14.7109],[79.1839,14.6889],[79.174,14.6826],[79.1871,14.6574],[79.1816,14.6439],[79.1889,14.6166],[79.2005,14.6139],[79.2197,14.5883],[79.2295,14.6027],[79.2418,14.5934],[79.2927,14.4949],[79.2818,14.4719],[79.2846,14.4459],[79.2426,14.441],[79.2325,14.4147],[79.2027,14.3949],[79.2059,14.3885],[79.184,14.3841],[79.1652,14.3568],[79.1411,14.3711],[79.1224,14.3702],[79.1313,14.3377],[79.1552,14.3267],[79.146,14.2945],[79.1004,14.3058],[79.0679,14.2781],[79.0252,14.29],[78.9908,14.2703],[78.9696,14.2827],[78.9357,14.2715],[78.9113,14.2969],[78.9022,14.3217],[78.8807,14.3233],[78.8716,14.2978],[78.8268,14.2919],[78.8141,14.291],[78.7696,14.3164],[78.7371,14.295],[78.6711,14.2984],[78.6836,14.2694],[78.6682,14.2461],[78.6533,14.2492],[78.6593,14.2654],[78.6496,14.2739],[78.6074,14.2834],[78.5944,14.2734],[78.5991,14.2512],[78.6183,14.2346],[78.6267,14.2104],[78.5894,14.1883],[78.5876,14.1767],[78.5659,14.1717],[78.5648,14.1607],[78.5284,14.1544],[78.5248,14.1695],[78.4988,14.1718],[78.4383,14.1372],[78.425,14.141],[78.4208,14.1616],[78.4312,14.1926],[78.4059,14.2014],[78.4207,14.2831],[78.3947,14.2773],[78.3574,14.2929],[78.285,14.2921],[78.2773,14.305],[78.2533,14.305],[78.2289,14.3157],[78.1893,14.3494],[78.1067,14.3932],[78.0851,14.4218],[78.0006,14.489],[77.9726,14.5325],[77.977,14.5381],[77.9441,14.5708],[77.9671,14.587],[77.9695,14.5754],[77.983,14.5672],[77.9877,14.5406],[78.04,14.5338],[78.0395,14.5667],[78.0646,14.5728],[78.0881,14.6307],[78.1216,14.624],[78.1347,14.6956],[78.1095,14.6927],[78.0965,14.7014],[78.0938,14.7139],[78.0634,14.7187],[78.0764,14.7527],[78.0469,14.775],[78.0656,14.7976],[78.0762,14.8275],[78.1013,14.8174],[78.1136,14.851],[78.0891,14.8579],[78.1131,14.9319],[78.1312,14.9345],[78.1369,14.9481],[78.1516,14.9491],[78.1568,14.9623],[78.2204,14.9555],[78.2358,15.0036],[78.2439,14.9995],[78.2602,15.0269],[78.2837,15.0313],[78.275,15.0583],[78.2876,15.0727],[78.3254,15.0734],[78.3637,15.0523],[78.371,15.072],[78.3827,15.0696],[78.378,15.0567],[78.3998,15.0489],[78.3696,15.0264],[78.3532,15.0313],[78.3428,15.0031],[78.3593,14.9859],[78.3982,14.9693],[78.4097,14.973],[78.4193,15.0318],[78.4743,15.0357],[78.4874,15.0503],[78.4786,15.0539],[78.4816,15.0714],[78.5056,15.0701],[78.5156,15.0608],[78.5152,15.013],[78.5084,15.0053],[78.5166,14.9969],[78.5049,14.9549],[78.4982,14.9558],[78.4773,14.9026],[78.4852,14.9008],[78.5197,14.9434],[78.5196,14.954],[78.5402,14.9652],[78.5515,14.9614],[78.5469,14.9331],[78.5635,14.9319],[78.5838,14.9461],[78.5918,14.9393],[78.6021,14.9541],[78.6304,14.9447],[78.63,14.9259],[78.6603,14.9301],[78.6845,14.9388],[78.6917,14.9683],[78.718,14.9689],[78.7154,15.0013],[78.7614,15.0537],[78.7501,15.1344],[78.7583,15.185],[78.7775,15.2],[78.8714,15.1979],[78.9194,15.1873],[78.927,15.2288],[78.9372,15.2296],[78.9478,15.2287],[78.9574,15.1763],[78.9814,15.1649],[79.0101,15.1679],[79.0168,15.1798],[79.0832,15.1738],[79.0734,15.1654],[79.0726,15.1351],[79.0892,15.0485]]]}}]}